{"type": "FeatureCollection", "features": [{"type": "Feature", "geometry": {"type": "Point", "coordinates": [97.45, 3.133333]}, "properties": {"name": "Aceh Selatan Coal Terminal", "status": "Cancelled", "capacity_mt": "*", "terminal_type": "Exports", "product_type": "Coal", "owner": "-", "source": "Global Coal Terminals Tracker, Global Energy Monitor, December 2024 release (CC BY 4.0)"}}, {"type": "Feature", "geometry": {"type": "Point", "coordinates": [116.31968, -1.697955]}, "properties": {"name": "Adang Bay Anchorage Coal Terminal", "status": "Operating", "capacity_mt": 21.8, "terminal_type": "Exports", "product_type": "Coal", "owner": "Kideco Jaya Agung", "source": "Global Coal Terminals Tracker, Global Energy Monitor, December 2024 release (CC BY 4.0)"}}, {"type": "Feature", "geometry": {"type": "Point", "coordinates": [116.616667, -1.9]}, "properties": {"name": "Apar Bay Anchorage Coal Terminal", "status": "Operating", "capacity_mt": 1, "terminal_type": "Exports", "product_type": "Coal", "owner": "-", "source": "Global Coal Terminals Tracker, Global Energy Monitor, December 2024 release (CC BY 4.0)"}}, {"type": "Feature", "geometry": {"type": "Point", "coordinates": [115.138720502665, -3.95878338513379]}, "properties": {"name": "Asam Asam Coal Terminal", "status": "Operating", "capacity_mt": 12, "terminal_type": "Exports", "product_type": "Coal", "owner": "PT Mitratama Perkasa", "source": "Global Coal Terminals Tracker, Global Energy Monitor, December 2024 release (CC BY 4.0)"}}, {"type": "Feature", "geometry": {"type": "Point", "coordinates": [116.786717, -1.197841]}, "properties": {"name": "Balikpapan Coal Terminal", "status": "Construction", "capacity_mt": 21, "terminal_type": "Exports", "product_type": "Coal", "owner": "PT Dermaga Perkasapratama", "source": "Global Coal Terminals Tracker, Global Energy Monitor, December 2024 release (CC BY 4.0)"}}, {"type": "Feature", "geometry": {"type": "Point", "coordinates": [116.786717, -1.197841]}, "properties": {"name": "Balikpapan Coal Terminal", "status": "Operating", "capacity_mt": 24, "terminal_type": "Exports", "product_type": "Coal", "owner": "PT Dermaga Perkasapratama", "source": "Global Coal Terminals Tracker, Global Energy Monitor, December 2024 release (CC BY 4.0)"}}, {"type": "Feature", "geometry": {"type": "Point", "coordinates": [114.558366646278, -3.32464168382675]}, "properties": {"name": "Banjamarsin Port", "status": "Operating", "capacity_mt": 100, "terminal_type": "Exports", "product_type": "Coal", "owner": "PT Pelabuhan Indonesia (Persero) ", "source": "Global Coal Terminals Tracker, Global Energy Monitor, December 2024 release (CC BY 4.0)"}}, {"type": "Feature", "geometry": {"type": "Point", "coordinates": [106.25, -6.5]}, "properties": {"name": "Banten Coal Terminal", "status": "Operating", "capacity_mt": 7, "terminal_type": "Domestic", "product_type": "Coal", "owner": "PT PLN Persero", "source": "Global Coal Terminals Tracker, Global Energy Monitor, December 2024 release (CC BY 4.0)"}}, {"type": "Feature", "geometry": {"type": "Point", "coordinates": [115.636367537321, -3.74544544682322]}, "properties": {"name": "Batulicin Coal Terminal", "status": "Operating", "capacity_mt": 6, "terminal_type": "Exports", "product_type": "Coal", "owner": "PT Bina Indo Raya", "source": "Global Coal Terminals Tracker, Global Energy Monitor, December 2024 release (CC BY 4.0)"}}, {"type": "Feature", "geometry": {"type": "Point", "coordinates": [102.2625, -3.877778]}, "properties": {"name": "Bengkulu Port Bengkulu Port", "status": "Operating", "capacity_mt": 5.47, "terminal_type": "Exports", "product_type": "Coal", "owner": "-", "source": "Global Coal Terminals Tracker, Global Energy Monitor, December 2024 release (CC BY 4.0)"}}, {"type": "Feature", "geometry": {"type": "Point", "coordinates": [117.5164604, 0.0291824]}, "properties": {"name": "Bontang Coal Terminal", "status": "Operating", "capacity_mt": 18.5, "terminal_type": "Exports", "product_type": "Coal", "owner": "PT Indominco Mandiri", "source": "Global Coal Terminals Tracker, Global Energy Monitor, December 2024 release (CC BY 4.0)"}}, {"type": "Feature", "geometry": {"type": "Point", "coordinates": [114.0, 1.0]}, "properties": {"name": "Borneo Coal Terminal", "status": "Shelved", "capacity_mt": "*", "terminal_type": "Exports", "product_type": "Coal", "owner": "-", "source": "Global Coal Terminals Tracker, Global Energy Monitor, December 2024 release (CC BY 4.0)"}}, {"type": "Feature", "geometry": {"type": "Point", "coordinates": [115.647102650044, -3.74400416245047]}, "properties": {"name": "Bunati Port", "status": "Operating", "capacity_mt": 30, "terminal_type": "Exports", "product_type": "Coal", "owner": "PT Borneo Indobara", "source": "Global Coal Terminals Tracker, Global Energy Monitor, December 2024 release (CC BY 4.0)"}}, {"type": "Feature", "geometry": {"type": "Point", "coordinates": [106.150278, -6.12]}, "properties": {"name": "Cigading International Bulk Terminal", "status": "Operating", "capacity_mt": 7.5, "terminal_type": "Exports", "product_type": "Coal", "owner": "-", "source": "Global Coal Terminals Tracker, Global Energy Monitor, December 2024 release (CC BY 4.0)"}}, {"type": "Feature", "geometry": {"type": "Point", "coordinates": [108.572778, -6.709722]}, "properties": {"name": "Cirebon Port Coal Terminal", "status": "Operating", "capacity_mt": 3, "terminal_type": "Imports", "product_type": "All Cargo", "owner": "Port Authority of Tanjung Priok", "source": "Global Coal Terminals Tracker, Global Energy Monitor, December 2024 release (CC BY 4.0)"}}, {"type": "Feature", "geometry": {"type": "Point", "coordinates": [114.882879687117, -1.5003132239505]}, "properties": {"name": "Hasnur Pendang Coal Terminal", "status": "Operating", "capacity_mt": 2, "terminal_type": "Exports", "product_type": "Coal", "owner": "PT Hasnur Internasional Shipping", "source": "Global Coal Terminals Tracker, Global Energy Monitor, December 2024 release (CC BY 4.0)"}}, {"type": "Feature", "geometry": {"type": "Point", "coordinates": [114.893494771926, -2.93865757325175]}, "properties": {"name": "Hasnur Sangai Puting Coal Terminal", "status": "Operating", "capacity_mt": 6, "terminal_type": "Exports", "product_type": "Coal", "owner": "PT Hasnur Internasional Shipping", "source": "Global Coal Terminals Tracker, Global Energy Monitor, December 2024 release (CC BY 4.0)"}}, {"type": "Feature", "geometry": {"type": "Point", "coordinates": [115.059231185858, -4.27408850388304]}, "properties": {"name": "Jorong Anchorage Coal Terminal", "status": "Operating", "capacity_mt": "*", "terminal_type": "Exports", "product_type": "Coal", "owner": "PT Indo Tambangraya Megah Tbk", "source": "Global Coal Terminals Tracker, Global Energy Monitor, December 2024 release (CC BY 4.0)"}}, {"type": "Feature", "geometry": {"type": "Point", "coordinates": [104.748342676025, -3.0175514192532]}, "properties": {"name": "Kertapati Coal Port Terminal", "status": "Operating", "capacity_mt": 7, "terminal_type": "Exports, Domestic", "product_type": "Coal", "owner": "PT Bukit Asam Tbk", "source": "Global Coal Terminals Tracker, Global Energy Monitor, December 2024 release (CC BY 4.0)"}}, {"type": "Feature", "geometry": {"type": "Point", "coordinates": [98.7305152, 1.7519953]}, "properties": {"name": "Labuhan Angin Coal Terminal", "status": "Operating", "capacity_mt": 0.87, "terminal_type": "Domestic", "product_type": "Coal", "owner": "PT PLN Persero", "source": "Global Coal Terminals Tracker, Global Energy Monitor, December 2024 release (CC BY 4.0)"}}, {"type": "Feature", "geometry": {"type": "Point", "coordinates": [117.753546638523, 0.761941285763112]}, "properties": {"name": "Lubuk Tutung Coal Terminal", "status": "Operating", "capacity_mt": 12, "terminal_type": "Exports", "product_type": "Coal", "owner": "PT Nusa Tambang Pratama", "source": "Global Coal Terminals Tracker, Global Energy Monitor, December 2024 release (CC BY 4.0)"}}, {"type": "Feature", "geometry": {"type": "Point", "coordinates": [117.9832077, 0.9169759]}, "properties": {"name": "Maloy Coal Terminal", "status": "Shelved", "capacity_mt": "*", "terminal_type": "Exports", "product_type": "Coal", "owner": "-", "source": "Global Coal Terminals Tracker, Global Energy Monitor, December 2024 release (CC BY 4.0)"}}, {"type": "Feature", "geometry": {"type": "Point", "coordinates": [104.93438, -2.18342]}, "properties": {"name": "Muara Banyu Asin Anchorage Coal Terminal", "status": "Operating", "capacity_mt": 34.4, "terminal_type": "Exports", "product_type": "Coal", "owner": "-", "source": "Global Coal Terminals Tracker, Global Energy Monitor, December 2024 release (CC BY 4.0)"}}, {"type": "Feature", "geometry": {"type": "Point", "coordinates": [117.593885796704, -0.275033309215586]}, "properties": {"name": "Muara Berau Anchorage Coal Terminal", "status": "Operating", "capacity_mt": 40.9, "terminal_type": "Exports", "product_type": "Coal", "owner": "-", "source": "Global Coal Terminals Tracker, Global Energy Monitor, December 2024 release (CC BY 4.0)"}}, {"type": "Feature", "geometry": {"type": "Point", "coordinates": [117.24647834789, -1.08017710550169]}, "properties": {"name": "Muara Jawa Anchorage Coal Terminal", "status": "Operating", "capacity_mt": "*", "terminal_type": "Exports", "product_type": "Coal", "owner": "-", "source": "Global Coal Terminals Tracker, Global Energy Monitor, December 2024 release (CC BY 4.0)"}}, {"type": "Feature", "geometry": {"type": "Point", "coordinates": [118.141667, 1.985]}, "properties": {"name": "Muara Pantai Coal Anchorage Terminal", "status": "Operating", "capacity_mt": 30, "terminal_type": "Exports", "product_type": "Coal", "owner": "PT Berau Coal Energy Tbk", "source": "Global Coal Terminals Tracker, Global Energy Monitor, December 2024 release (CC BY 4.0)"}}, {"type": "Feature", "geometry": {"type": "Point", "coordinates": [103.813889, -0.897222]}, "properties": {"name": "Muara Sabak Coal Anchorage Terminal", "status": "Operating", "capacity_mt": 5.9, "terminal_type": "Exports", "product_type": "Coal", "owner": "-", "source": "Global Coal Terminals Tracker, Global Energy Monitor, December 2024 release (CC BY 4.0)"}}, {"type": "Feature", "geometry": {"type": "Point", "coordinates": [115.519508830335, -3.96621040498885]}, "properties": {"name": "Muara Satui Barge Port Coal Terminal", "status": "Operating", "capacity_mt": 15, "terminal_type": "Exports", "product_type": "Coal", "owner": "PT Arutmin Indonesia", "source": "Global Coal Terminals Tracker, Global Energy Monitor, December 2024 release (CC BY 4.0)"}}, {"type": "Feature", "geometry": {"type": "Point", "coordinates": [116.286592, -3.216402]}, "properties": {"name": "North Pulau Laut Coal Terminal", "status": "Operating", "capacity_mt": 13.2, "terminal_type": "Exports", "product_type": "Coal", "owner": "PT Arutmin Indonesia", "source": "Global Coal Terminals Tracker, Global Energy Monitor, December 2024 release (CC BY 4.0)"}}, {"type": "Feature", "geometry": {"type": "Point", "coordinates": [113.591667, -7.712778]}, "properties": {"name": "Paiton Coal Terminal", "status": "Operating", "capacity_mt": 4, "terminal_type": "Imports", "product_type": "Coal", "owner": "PT Paiton Energy", "source": "Global Coal Terminals Tracker, Global Energy Monitor, December 2024 release (CC BY 4.0)"}}, {"type": "Feature", "geometry": {"type": "Point", "coordinates": [117.762986639453, 0.76550670321884]}, "properties": {"name": "Perkasa Jetty", "status": "Operating", "capacity_mt": 1.2, "terminal_type": "Exports", "product_type": "Coal", "owner": "PT Bayan Resources Tbk", "source": "Global Coal Terminals Tracker, Global Energy Monitor, December 2024 release (CC BY 4.0)"}}, {"type": "Feature", "geometry": {"type": "Point", "coordinates": [102.279217, -3.918953]}, "properties": {"name": "Pulau Baai Coal Terminal", "status": "Operating", "capacity_mt": 10, "terminal_type": "Exports", "product_type": "Coal", "owner": "PT Pelabuhan Indonesia II", "source": "Global Coal Terminals Tracker, Global Energy Monitor, December 2024 release (CC BY 4.0)"}}, {"type": "Feature", "geometry": {"type": "Point", "coordinates": [116.042594395571, -4.02805735951521]}, "properties": {"name": "Pulau Laut Coal Terminal", "status": "Operating", "capacity_mt": 12, "terminal_type": "Exports", "product_type": "Coal", "owner": "PT Indonesia Bulk Terminal ", "source": "Global Coal Terminals Tracker, Global Energy Monitor, December 2024 release (CC BY 4.0)"}}, {"type": "Feature", "geometry": {"type": "Point", "coordinates": [102.654, -0.458]}, "properties": {"name": "Riau Coal Terminal", "status": "Operating", "capacity_mt": 3.6, "terminal_type": "Exports", "product_type": "Coal", "owner": "BlackGold Group", "source": "Global Coal Terminals Tracker, Global Energy Monitor, December 2024 release (CC BY 4.0)"}}, {"type": "Feature", "geometry": {"type": "Point", "coordinates": [117.25, -1.083333]}, "properties": {"name": "Samarinda Anchorage Port", "status": "Operating", "capacity_mt": 6, "terminal_type": "Exports", "product_type": "Coal", "owner": "-", "source": "Global Coal Terminals Tracker, Global Energy Monitor, December 2024 release (CC BY 4.0)"}}, {"type": "Feature", "geometry": {"type": "Point", "coordinates": [117.155309049084, -0.507463287541201]}, "properties": {"name": "Samarinda Port Coal Terminal", "status": "Operating", "capacity_mt": 74, "terminal_type": "Exports", "product_type": "Coal", "owner": "PT Pelabuhan Indonesia ", "source": "Global Coal Terminals Tracker, Global Energy Monitor, December 2024 release (CC BY 4.0)"}}, {"type": "Feature", "geometry": {"type": "Point", "coordinates": [116.351427026584, -3.82176495943463]}, "properties": {"name": "Sebuku Anchorage Coal Terminal", "status": "Operating", "capacity_mt": "*", "terminal_type": "Exports", "product_type": "Coal", "owner": "-", "source": "Global Coal Terminals Tracker, Global Energy Monitor, December 2024 release (CC BY 4.0)"}}, {"type": "Feature", "geometry": {"type": "Point", "coordinates": [117.079411, -0.321863]}, "properties": {"name": "Separi Barge Loading Facility Coal Terminal", "status": "Operating", "capacity_mt": 20, "terminal_type": "Exports", "product_type": "Coal", "owner": "HarumEnergy", "source": "Global Coal Terminals Tracker, Global Energy Monitor, December 2024 release (CC BY 4.0)"}}, {"type": "Feature", "geometry": {"type": "Point", "coordinates": [103.833333, -2.75]}, "properties": {"name": "Sumsel Coal Terminal", "status": "Cancelled", "capacity_mt": "*", "terminal_type": "Exports", "product_type": "Coal", "owner": "-", "source": "Global Coal Terminals Tracker, Global Energy Monitor, December 2024 release (CC BY 4.0)"}}, {"type": "Feature", "geometry": {"type": "Point", "coordinates": [115.5, -2.5]}, "properties": {"name": "Sungai Danau Coal Terminal", "status": "Cancelled", "capacity_mt": "*", "terminal_type": "Exports", "product_type": "Coal", "owner": "-", "source": "Global Coal Terminals Tracker, Global Energy Monitor, December 2024 release (CC BY 4.0)"}}, {"type": "Feature", "geometry": {"type": "Point", "coordinates": [106.02828, -5.8864]}, "properties": {"name": "Suralaya Coal Terminal", "status": "Operating", "capacity_mt": 3.75, "terminal_type": "Domestic", "product_type": "Coal", "owner": "PT PLN Persero", "source": "Global Coal Terminals Tracker, Global Energy Monitor, December 2024 release (CC BY 4.0)"}}, {"type": "Feature", "geometry": {"type": "Point", "coordinates": [114.455566, -3.639518]}, "properties": {"name": "Taboneo Anchorage Banjamarsin Port", "status": "Operating", "capacity_mt": 6, "terminal_type": "Exports", "product_type": "Coal", "owner": "PT Southern Mineral Resources ", "source": "Global Coal Terminals Tracker, Global Energy Monitor, December 2024 release (CC BY 4.0)"}}, {"type": "Feature", "geometry": {"type": "Point", "coordinates": [103.623139, -1.581944]}, "properties": {"name": "Talang Duku Port Coal Terminal", "status": "Operating", "capacity_mt": "*", "terminal_type": "Imports", "product_type": "Coal", "owner": "-", "source": "Global Coal Terminals Tracker, Global Energy Monitor, December 2024 release (CC BY 4.0)"}}, {"type": "Feature", "geometry": {"type": "Point", "coordinates": [116.157664691412, -1.82137551207807]}, "properties": {"name": "Tanah Merah Coal Terminal", "status": "Operating", "capacity_mt": 40, "terminal_type": "Exports", "product_type": "Coal", "owner": "Kideco Jaya Agung", "source": "Global Coal Terminals Tracker, Global Energy Monitor, December 2024 release (CC BY 4.0)"}}, {"type": "Feature", "geometry": {"type": "Point", "coordinates": [104.805223, -2.37351]}, "properties": {"name": "Tanjung Api-Api Coal Terminal", "status": "Operating", "capacity_mt": "*", "terminal_type": "Exports", "product_type": "Coal", "owner": "-", "source": "Global Coal Terminals Tracker, Global Energy Monitor, December 2024 release (CC BY 4.0)"}}, {"type": "Feature", "geometry": {"type": "Point", "coordinates": [117.64555, 0.531284]}, "properties": {"name": "Tanjung Bara Coal Terminal", "status": "Operating", "capacity_mt": 38, "terminal_type": "Exports", "product_type": "Coal", "owner": "PT Kaltim Prima Coal", "source": "Global Coal Terminals Tracker, Global Energy Monitor, December 2024 release (CC BY 4.0)"}}, {"type": "Feature", "geometry": {"type": "Point", "coordinates": [104.885829995856, -2.28778244930029]}, "properties": {"name": "Tanjung Carat Port Coal Terminal", "status": "Proposed", "capacity_mt": 50, "terminal_type": "Exports", "product_type": "Coal", "owner": "PT Pelabuhan Indonesia II", "source": "Global Coal Terminals Tracker, Global Energy Monitor, December 2024 release (CC BY 4.0)"}}, {"type": "Feature", "geometry": {"type": "Point", "coordinates": [108.995316433868, -7.73255873001864]}, "properties": {"name": "Tanjung Intan-Cilacap Port Coal Terminal", "status": "Operating", "capacity_mt": 2, "terminal_type": "Exports", "product_type": "Coal", "owner": "PT Pelindo II", "source": "Global Coal Terminals Tracker, Global Energy Monitor, December 2024 release (CC BY 4.0)"}}, {"type": "Feature", "geometry": {"type": "Point", "coordinates": [110.742359, -6.446488]}, "properties": {"name": "Tanjung Jati Coal Terminal", "status": "Operating", "capacity_mt": 14, "terminal_type": "Domestic", "product_type": "Coal", "owner": "PT PLN Persero", "source": "Global Coal Terminals Tracker, Global Energy Monitor, December 2024 release (CC BY 4.0)"}}, {"type": "Feature", "geometry": {"type": "Point", "coordinates": [116.363889, -3.191667]}, "properties": {"name": "Tanjung Pemancingan Anchorage Coal Terminal", "status": "Operating", "capacity_mt": 13.5, "terminal_type": "Exports", "product_type": "Coal", "owner": "-", "source": "Global Coal Terminals Tracker, Global Energy Monitor, December 2024 release (CC BY 4.0)"}}, {"type": "Feature", "geometry": {"type": "Point", "coordinates": [105.343989461789, -5.51579445267356]}, "properties": {"name": "Tarahan Coal Port Coal Terminal", "status": "Operating", "capacity_mt": 25, "terminal_type": "Exports, Domestic", "product_type": "Coal", "owner": "PT Bukit Asam Tbk", "source": "Global Coal Terminals Tracker, Global Energy Monitor, December 2024 release (CC BY 4.0)"}}, {"type": "Feature", "geometry": {"type": "Point", "coordinates": [105.343989461789, -5.51579445267356]}, "properties": {"name": "Tarahan Coal Port Coal Terminal", "status": "Proposed", "capacity_mt": 20, "terminal_type": "Exports", "product_type": "Coal", "owner": "PT Bukit Asam Tbk", "source": "Global Coal Terminals Tracker, Global Energy Monitor, December 2024 release (CC BY 4.0)"}}, {"type": "Feature", "geometry": {"type": "Point", "coordinates": [117.73700848519, 3.29757450422254]}, "properties": {"name": "Tarakan Coal Anchorage Coal Terminal", "status": "Operating", "capacity_mt": 9.7, "terminal_type": "Exports", "product_type": "Coal", "owner": "-", "source": "Global Coal Terminals Tracker, Global Energy Monitor, December 2024 release (CC BY 4.0)"}}, {"type": "Feature", "geometry": {"type": "Point", "coordinates": [100.379097, -0.995522]}, "properties": {"name": "Teluk Bayur Coal Terminal", "status": "Mothballed", "capacity_mt": 2.5, "terminal_type": "Exports", "product_type": "Coal", "owner": "PT Bukit Asam Tbk", "source": "Global Coal Terminals Tracker, Global Energy Monitor, December 2024 release (CC BY 4.0)"}}, {"type": "Feature", "geometry": {"type": "Point", "coordinates": [110.7303, -6.433908]}, "properties": {"name": "Tuban Coal Terminal", "status": "Operating", "capacity_mt": 2, "terminal_type": "Imports", "product_type": "Coal", "owner": "-", "source": "Global Coal Terminals Tracker, Global Energy Monitor, December 2024 release (CC BY 4.0)"}}, {"type": "Feature", "geometry": {"type": "Point", "coordinates": [115.421936869081, -3.83740537631406]}, "properties": {"name": "Wahana Jetty Coal Terminal", "status": "Operating", "capacity_mt": 1.6, "terminal_type": "Exports", "product_type": "Coal", "owner": "PT Bayan Resources Tbk", "source": "Global Coal Terminals Tracker, Global Energy Monitor, December 2024 release (CC BY 4.0)"}}, {"type": "Feature", "geometry": {"type": "Point", "coordinates": [115.33662435128, -3.87604892880862]}, "properties": {"name": "West Mulia Coal Terminal", "status": "Operating", "capacity_mt": 12, "terminal_type": "Exports", "product_type": "Coal", "owner": "PT Mitratama Perkasa", "source": "Global Coal Terminals Tracker, Global Energy Monitor, December 2024 release (CC BY 4.0)"}}]}