{"type": "FeatureCollection", "features": [{"type": "Feature", "geometry": {"type": "Point", "coordinates": [109.13756, -7.685942]}, "properties": {"name": "Adipala power station", "capacity_mw": 660.0, "unit_count": 1, "status": "operating", "source": "Global Coal Plant Tracker, Global Energy Monitor, January 2026 release (CC BY 4.0)"}}, {"type": "Feature", "geometry": {"type": "Point", "coordinates": [117.9001999, 2.4946822]}, "properties": {"name": "AlamTri Aluminum Smelter power station", "capacity_mw": 275.0, "unit_count": 1, "status": "operating", "source": "Global Coal Plant Tracker, Global Energy Monitor, January 2026 release (CC BY 4.0)"}}, {"type": "Feature", "geometry": {"type": "Point", "coordinates": [136.839082, -4.827752]}, "properties": {"name": "Amamapare Port power station", "capacity_mw": 195.0, "unit_count": 3, "status": "operating", "source": "Global Coal Plant Tracker, Global Energy Monitor, January 2026 release (CC BY 4.0)"}}, {"type": "Feature", "geometry": {"type": "Point", "coordinates": [124.480564, 1.182502]}, "properties": {"name": "Amurang-2 power station", "capacity_mw": 60.0, "unit_count": 2, "status": "operating", "source": "Global Coal Plant Tracker, Global Energy Monitor, January 2026 release (CC BY 4.0)"}}, {"type": "Feature", "geometry": {"type": "Point", "coordinates": [124.480564, 1.182502]}, "properties": {"name": "Amurang power station", "capacity_mw": 60.0, "unit_count": 2, "status": "operating", "source": "Global Coal Plant Tracker, Global Energy Monitor, January 2026 release (CC BY 4.0)"}}, {"type": "Feature", "geometry": {"type": "Point", "coordinates": [105.942635, -6.024754]}, "properties": {"name": "Asahimas Chemical power station", "capacity_mw": 300.0, "unit_count": 2, "status": "operating", "source": "Global Coal Plant Tracker, Global Energy Monitor, January 2026 release (CC BY 4.0)"}}, {"type": "Feature", "geometry": {"type": "Point", "coordinates": [115.105805, -3.9265336]}, "properties": {"name": "Asam-Asam power station", "capacity_mw": 460.0, "unit_count": 6, "status": "operating", "source": "Global Coal Plant Tracker, Global Energy Monitor, January 2026 release (CC BY 4.0)"}}, {"type": "Feature", "geometry": {"type": "Point", "coordinates": [107.605782, -6.970501]}, "properties": {"name": "Bandung Indosyntec power station", "capacity_mw": 30.0, "unit_count": 1, "status": "operating", "source": "Global Coal Plant Tracker, Global Energy Monitor, January 2026 release (CC BY 4.0)"}}, {"type": "Feature", "geometry": {"type": "Point", "coordinates": [106.149617, -2.079245]}, "properties": {"name": "Bangka Baru power station", "capacity_mw": 60.0, "unit_count": 2, "status": "operating", "source": "Global Coal Plant Tracker, Global Energy Monitor, January 2026 release (CC BY 4.0)"}}, {"type": "Feature", "geometry": {"type": "Point", "coordinates": [103.804133, -3.838679]}, "properties": {"name": "Bangko Tengah power station", "capacity_mw": 1320.0, "unit_count": 2, "status": "operating", "source": "Global Coal Plant Tracker, Global Energy Monitor, January 2026 release (CC BY 4.0)"}}, {"type": "Feature", "geometry": {"type": "Point", "coordinates": [103.69039, -3.72507]}, "properties": {"name": "Banjarsari power station", "capacity_mw": 220.0, "unit_count": 2, "status": "operating", "source": "Global Coal Plant Tracker, Global Energy Monitor, January 2026 release (CC BY 4.0)"}}, {"type": "Feature", "geometry": {"type": "Point", "coordinates": [105.82778, -6.392179]}, "properties": {"name": "Banten Labuan power station", "capacity_mw": 600.0, "unit_count": 2, "status": "operating", "source": "Global Coal Plant Tracker, Global Energy Monitor, January 2026 release (CC BY 4.0)"}}, {"type": "Feature", "geometry": {"type": "Point", "coordinates": [106.4643, -6.058874]}, "properties": {"name": "Banten Lontar power station", "capacity_mw": 1260.0, "unit_count": 4, "status": "operating", "source": "Global Coal Plant Tracker, Global Energy Monitor, January 2026 release (CC BY 4.0)"}}, {"type": "Feature", "geometry": {"type": "Point", "coordinates": [106.045929, -5.882972]}, "properties": {"name": "Banten Serang power station", "capacity_mw": 660.0, "unit_count": 1, "status": "operating", "source": "Global Coal Plant Tracker, Global Energy Monitor, January 2026 release (CC BY 4.0)"}}, {"type": "Feature", "geometry": {"type": "Point", "coordinates": [106.0336018, -5.8892179]}, "properties": {"name": "Banten Suralaya power station", "capacity_mw": 6025.0, "unit_count": 10, "status": "operating", "source": "Global Coal Plant Tracker, Global Energy Monitor, January 2026 release (CC BY 4.0)"}}, {"type": "Feature", "geometry": {"type": "Point", "coordinates": [119.63135, -4.29329]}, "properties": {"name": "Barru power station", "capacity_mw": 200.0, "unit_count": 3, "status": "operating", "source": "Global Coal Plant Tracker, Global Energy Monitor, January 2026 release (CC BY 4.0)"}}, {"type": "Feature", "geometry": {"type": "Point", "coordinates": [116.738209, -8.901172]}, "properties": {"name": "Batu Hijau power station", "capacity_mw": 124.0, "unit_count": 4, "status": "operating", "source": "Global Coal Plant Tracker, Global Energy Monitor, January 2026 release (CC BY 4.0)"}}, {"type": "Feature", "geometry": {"type": "Point", "coordinates": [108.873675, 0.83511]}, "properties": {"name": "Bengkayang Power Station", "capacity_mw": 100.0, "unit_count": 2, "status": "operating", "source": "Global Coal Plant Tracker, Global Energy Monitor, January 2026 release (CC BY 4.0)"}}, {"type": "Feature", "geometry": {"type": "Point", "coordinates": [102.270375, -3.912348]}, "properties": {"name": "Bengkulu power station", "capacity_mw": 200.0, "unit_count": 2, "status": "operating", "source": "Global Coal Plant Tracker, Global Energy Monitor, January 2026 release (CC BY 4.0)"}}, {"type": "Feature", "geometry": {"type": "Point", "coordinates": [103.797527, -3.73213]}, "properties": {"name": "Bukit Asam Muara Enim power station", "capacity_mw": 260.0, "unit_count": 4, "status": "operating", "source": "Global Coal Plant Tracker, Global Energy Monitor, January 2026 release (CC BY 4.0)"}}, {"type": "Feature", "geometry": {"type": "Point", "coordinates": [114.851568, -8.196295]}, "properties": {"name": "Celukan Bawang power station", "capacity_mw": 426.0, "unit_count": 3, "status": "operating", "source": "Global Coal Plant Tracker, Global Energy Monitor, January 2026 release (CC BY 4.0)"}}, {"type": "Feature", "geometry": {"type": "Point", "coordinates": [106.250158, -6.950808]}, "properties": {"name": "Cemindo Gemilang power station", "capacity_mw": 60.0, "unit_count": 1, "status": "operating", "source": "Global Coal Plant Tracker, Global Energy Monitor, January 2026 release (CC BY 4.0)"}}, {"type": "Feature", "geometry": {"type": "Point", "coordinates": [109.803685, -6.900828]}, "properties": {"name": "Central Java Power Project", "capacity_mw": 1900.0, "unit_count": 2, "status": "operating", "source": "Global Coal Plant Tracker, Global Energy Monitor, January 2026 release (CC BY 4.0)"}}, {"type": "Feature", "geometry": {"type": "Point", "coordinates": [107.05197, -6.11607]}, "properties": {"name": "Cikarang Babelan power station", "capacity_mw": 280.0, "unit_count": 2, "status": "operating", "source": "Global Coal Plant Tracker, Global Energy Monitor, January 2026 release (CC BY 4.0)"}}, {"type": "Feature", "geometry": {"type": "Point", "coordinates": [109.08977, -7.68575]}, "properties": {"name": "Cilacap Sumber power station", "capacity_mw": 2260.0, "unit_count": 4, "status": "operating", "source": "Global Coal Plant Tracker, Global Energy Monitor, January 2026 release (CC BY 4.0)"}}, {"type": "Feature", "geometry": {"type": "Point", "coordinates": [105.950127, -6.023889]}, "properties": {"name": "Cilegon PTIP Power Station", "capacity_mw": 40.0, "unit_count": 1, "status": "operating", "source": "Global Coal Plant Tracker, Global Energy Monitor, January 2026 release (CC BY 4.0)"}}, {"type": "Feature", "geometry": {"type": "Point", "coordinates": [108.614858, -6.770286]}, "properties": {"name": "Cirebon power station", "capacity_mw": 1584.0, "unit_count": 2, "status": "operating", "source": "Global Coal Plant Tracker, Global Energy Monitor, January 2026 release (CC BY 4.0)"}}, {"type": "Feature", "geometry": {"type": "Point", "coordinates": [121.4380707, -2.004694]}, "properties": {"name": "Delong Nickel Phase III power station", "capacity_mw": 945.0, "unit_count": 7, "status": "operating", "source": "Global Coal Plant Tracker, Global Energy Monitor, January 2026 release (CC BY 4.0)"}}, {"type": "Feature", "geometry": {"type": "Point", "coordinates": [122.462752, -3.8274877]}, "properties": {"name": "Delong Nickel Phase II power station", "capacity_mw": 1840.0, "unit_count": 10, "status": "operating", "source": "Global Coal Plant Tracker, Global Energy Monitor, January 2026 release (CC BY 4.0)"}}, {"type": "Feature", "geometry": {"type": "Point", "coordinates": [122.419265, -3.907537]}, "properties": {"name": "Delong Nickel Phase I power station", "capacity_mw": 530.0, "unit_count": 8, "status": "operating", "source": "Global Coal Plant Tracker, Global Energy Monitor, January 2026 release (CC BY 4.0)"}}, {"type": "Feature", "geometry": {"type": "Point", "coordinates": [121.4311814, -2.01656606]}, "properties": {"name": "Delong Nickel Phase IV power station", "capacity_mw": 330.0, "unit_count": 1, "status": "operating", "source": "Global Coal Plant Tracker, Global Energy Monitor, January 2026 release (CC BY 4.0)"}}, {"type": "Feature", "geometry": {"type": "Point", "coordinates": [117.062462, -0.373097]}, "properties": {"name": "Embalut power station", "capacity_mw": 60.0, "unit_count": 1, "status": "operating", "source": "Global Coal Plant Tracker, Global Energy Monitor, January 2026 release (CC BY 4.0)"}}, {"type": "Feature", "geometry": {"type": "Point", "coordinates": [107.124019, -6.272646]}, "properties": {"name": "FAJAR power station", "capacity_mw": 55.0, "unit_count": 1, "status": "operating", "source": "Global Coal Plant Tracker, Global Energy Monitor, January 2026 release (CC BY 4.0)"}}, {"type": "Feature", "geometry": {"type": "Point", "coordinates": [106.289205, -6.125435]}, "properties": {"name": "Indah Kiat Serang power station", "capacity_mw": 175.0, "unit_count": 4, "status": "operating", "source": "Global Coal Plant Tracker, Global Energy Monitor, January 2026 release (CC BY 4.0)"}}, {"type": "Feature", "geometry": {"type": "Point", "coordinates": [107.385203, -6.485801]}, "properties": {"name": "Indo Bharat Rayon power station", "capacity_mw": 36.6, "unit_count": 1, "status": "operating", "source": "Global Coal Plant Tracker, Global Energy Monitor, January 2026 release (CC BY 4.0)"}}, {"type": "Feature", "geometry": {"type": "Point", "coordinates": [107.97043, -6.274738]}, "properties": {"name": "Indramayu power station", "capacity_mw": 990.0, "unit_count": 3, "status": "operating", "source": "Global Coal Plant Tracker, Global Energy Monitor, January 2026 release (CC BY 4.0)"}}, {"type": "Feature", "geometry": {"type": "Point", "coordinates": [106.1008, -5.991694]}, "properties": {"name": "Jawa-7 power station", "capacity_mw": 1982.0, "unit_count": 2, "status": "operating", "source": "Global Coal Plant Tracker, Global Energy Monitor, January 2026 release (CC BY 4.0)"}}, {"type": "Feature", "geometry": {"type": "Point", "coordinates": [127.415933, -1.56606]}, "properties": {"name": "Jinchuan Group WP&RKA power station", "capacity_mw": 150.0, "unit_count": 3, "status": "operating", "source": "Global Coal Plant Tracker, Global Energy Monitor, January 2026 release (CC BY 4.0)"}}, {"type": "Feature", "geometry": {"type": "Point", "coordinates": [108.846126, 0.816152]}, "properties": {"name": "Kalbar-1 power station", "capacity_mw": 200.0, "unit_count": 2, "status": "operating", "source": "Global Coal Plant Tracker, Global Energy Monitor, January 2026 release (CC BY 4.0)"}}, {"type": "Feature", "geometry": {"type": "Point", "coordinates": [113.567203, -1.370796]}, "properties": {"name": "Kalselteng-1 power station", "capacity_mw": 200.0, "unit_count": 2, "status": "operating", "source": "Global Coal Plant Tracker, Global Energy Monitor, January 2026 release (CC BY 4.0)"}}, {"type": "Feature", "geometry": {"type": "Point", "coordinates": [114.208831, -2.822646]}, "properties": {"name": "Kalteng-1 Pulang Pisau power station", "capacity_mw": 120.0, "unit_count": 2, "status": "operating", "source": "Global Coal Plant Tracker, Global Energy Monitor, January 2026 release (CC BY 4.0)"}}, {"type": "Feature", "geometry": {"type": "Point", "coordinates": [117.0663078, -0.364211]}, "properties": {"name": "Kaltim-4 power station", "capacity_mw": 200.0, "unit_count": 2, "status": "operating", "source": "Global Coal Plant Tracker, Global Energy Monitor, January 2026 release (CC BY 4.0)"}}, {"type": "Feature", "geometry": {"type": "Point", "coordinates": [117.4945887, 0.0551785]}, "properties": {"name": "Kaltim FTP2 power station", "capacity_mw": 200.0, "unit_count": 2, "status": "operating", "source": "Global Coal Plant Tracker, Global Energy Monitor, January 2026 release (CC BY 4.0)"}}, {"type": "Feature", "geometry": {"type": "Point", "coordinates": [116.78872, -1.17036]}, "properties": {"name": "Kaltim Teluk Balikpapan power station", "capacity_mw": 220.0, "unit_count": 2, "status": "operating", "source": "Global Coal Plant Tracker, Global Energy Monitor, January 2026 release (CC BY 4.0)"}}, {"type": "Feature", "geometry": {"type": "Point", "coordinates": [103.64809, -3.75149]}, "properties": {"name": "Keban Agung power station", "capacity_mw": 270.0, "unit_count": 2, "status": "operating", "source": "Global Coal Plant Tracker, Global Energy Monitor, January 2026 release (CC BY 4.0)"}}, {"type": "Feature", "geometry": {"type": "Point", "coordinates": [122.6534484, -4.0512916]}, "properties": {"name": "Kendari-3 power station", "capacity_mw": 100.0, "unit_count": 2, "status": "operating", "source": "Global Coal Plant Tracker, Global Energy Monitor, January 2026 release (CC BY 4.0)"}}, {"type": "Feature", "geometry": {"type": "Point", "coordinates": [110.1066255, -2.235600318]}, "properties": {"name": "Ketapang Bangun Sarana power station", "capacity_mw": 75.0, "unit_count": 2, "status": "operating", "source": "Global Coal Plant Tracker, Global Energy Monitor, January 2026 release (CC BY 4.0)"}}, {"type": "Feature", "geometry": {"type": "Point", "coordinates": [110.157272, -2.366182]}, "properties": {"name": "Ketapang Smelter power station", "capacity_mw": 220.0, "unit_count": 4, "status": "operating", "source": "Global Coal Plant Tracker, Global Energy Monitor, January 2026 release (CC BY 4.0)"}}, {"type": "Feature", "geometry": {"type": "Point", "coordinates": [98.7312856, 1.7518502]}, "properties": {"name": "Labuhan Angin power station", "capacity_mw": 230.0, "unit_count": 2, "status": "operating", "source": "Global Coal Plant Tracker, Global Energy Monitor, January 2026 release (CC BY 4.0)"}}, {"type": "Feature", "geometry": {"type": "Point", "coordinates": [105.38719, -5.58594]}, "properties": {"name": "Lampung Sebalang power station", "capacity_mw": 200.0, "unit_count": 2, "status": "operating", "source": "Global Coal Plant Tracker, Global Energy Monitor, January 2026 release (CC BY 4.0)"}}, {"type": "Feature", "geometry": {"type": "Point", "coordinates": [98.665386, 3.667568]}, "properties": {"name": "Medan Steel Mill power station", "capacity_mw": 60.0, "unit_count": 2, "status": "operating", "source": "Global Coal Plant Tracker, Global Energy Monitor, January 2026 release (CC BY 4.0)"}}, {"type": "Feature", "geometry": {"type": "Point", "coordinates": [106.06422, -5.88403]}, "properties": {"name": "Merak power station", "capacity_mw": 120.0, "unit_count": 2, "status": "operating", "source": "Global Coal Plant Tracker, Global Energy Monitor, January 2026 release (CC BY 4.0)"}}, {"type": "Feature", "geometry": {"type": "Point", "coordinates": [96.2024123, 4.1156362]}, "properties": {"name": "Nagan Raya power station", "capacity_mw": 670.0, "unit_count": 4, "status": "operating", "source": "Global Coal Plant Tracker, Global Energy Monitor, January 2026 release (CC BY 4.0)"}}, {"type": "Feature", "geometry": {"type": "Point", "coordinates": [104.6505404, 0.911643]}, "properties": {"name": "Nanshan Industrial Park power station", "capacity_mw": 180.0, "unit_count": 6, "status": "operating", "source": "Global Coal Plant Tracker, Global Energy Monitor, January 2026 release (CC BY 4.0)"}}, {"type": "Feature", "geometry": {"type": "Point", "coordinates": [100.753697, -0.609017]}, "properties": {"name": "Ombilin power station", "capacity_mw": 200.0, "unit_count": 2, "status": "operating", "source": "Global Coal Plant Tracker, Global Energy Monitor, January 2026 release (CC BY 4.0)"}}, {"type": "Feature", "geometry": {"type": "Point", "coordinates": [111.373558, -8.257818]}, "properties": {"name": "Pacitan power station", "capacity_mw": 630.0, "unit_count": 2, "status": "operating", "source": "Global Coal Plant Tracker, Global Energy Monitor, January 2026 release (CC BY 4.0)"}}, {"type": "Feature", "geometry": {"type": "Point", "coordinates": [113.585706, -7.715299]}, "properties": {"name": "Paiton-1 power station", "capacity_mw": 1230.0, "unit_count": 2, "status": "operating", "source": "Global Coal Plant Tracker, Global Energy Monitor, January 2026 release (CC BY 4.0)"}}, {"type": "Feature", "geometry": {"type": "Point", "coordinates": [113.585706, -7.715299]}, "properties": {"name": "Paiton-2 power station", "capacity_mw": 1320.0, "unit_count": 2, "status": "operating", "source": "Global Coal Plant Tracker, Global Energy Monitor, January 2026 release (CC BY 4.0)"}}, {"type": "Feature", "geometry": {"type": "Point", "coordinates": [113.58326, -7.71446]}, "properties": {"name": "Paiton-3 power station", "capacity_mw": 815.0, "unit_count": 1, "status": "operating", "source": "Global Coal Plant Tracker, Global Energy Monitor, January 2026 release (CC BY 4.0)"}}, {"type": "Feature", "geometry": {"type": "Point", "coordinates": [119.85592, -0.733203]}, "properties": {"name": "Palu power station", "capacity_mw": 100.0, "unit_count": 2, "status": "operating", "source": "Global Coal Plant Tracker, Global Energy Monitor, January 2026 release (CC BY 4.0)"}}, {"type": "Feature", "geometry": {"type": "Point", "coordinates": [98.25823, 4.12071]}, "properties": {"name": "Pangkalan Susu power station", "capacity_mw": 840.0, "unit_count": 4, "status": "operating", "source": "Global Coal Plant Tracker, Global Energy Monitor, January 2026 release (CC BY 4.0)"}}, {"type": "Feature", "geometry": {"type": "Point", "coordinates": [101.52345, 0.56437]}, "properties": {"name": "Pekanbaru Tenayan power station", "capacity_mw": 220.0, "unit_count": 2, "status": "operating", "source": "Global Coal Plant Tracker, Global Energy Monitor, January 2026 release (CC BY 4.0)"}}, {"type": "Feature", "geometry": {"type": "Point", "coordinates": [106.5464, -7.0242]}, "properties": {"name": "Pelabuhan Ratu power station", "capacity_mw": 1050.0, "unit_count": 3, "status": "operating", "source": "Global Coal Plant Tracker, Global Energy Monitor, January 2026 release (CC BY 4.0)"}}, {"type": "Feature", "geometry": {"type": "Point", "coordinates": [101.61907, 0.68932]}, "properties": {"name": "Perawang Mill power station", "capacity_mw": 755.0, "unit_count": 7, "status": "operating", "source": "Global Coal Plant Tracker, Global Energy Monitor, January 2026 release (CC BY 4.0)"}}, {"type": "Feature", "geometry": {"type": "Point", "coordinates": [113.570682, -7.711029]}, "properties": {"name": "PLN Paiton Baru power station", "capacity_mw": 660.0, "unit_count": 1, "status": "operating", "source": "Global Coal Plant Tracker, Global Energy Monitor, January 2026 release (CC BY 4.0)"}}, {"type": "Feature", "geometry": {"type": "Point", "coordinates": [113.585016, -7.7147]}, "properties": {"name": "PLN Paiton power station", "capacity_mw": 800.0, "unit_count": 2, "status": "operating", "source": "Global Coal Plant Tracker, Global Energy Monitor, January 2026 release (CC BY 4.0)"}}, {"type": "Feature", "geometry": {"type": "Point", "coordinates": [121.592935, -4.179865]}, "properties": {"name": "Pomalaa Nickel power station", "capacity_mw": 60.0, "unit_count": 2, "status": "operating", "source": "Global Coal Plant Tracker, Global Energy Monitor, January 2026 release (CC BY 4.0)"}}, {"type": "Feature", "geometry": {"type": "Point", "coordinates": [127.416015, -1.53615]}, "properties": {"name": "PT Halmahera Persada Lygend Nickel Smelter power station", "capacity_mw": 1630.0, "unit_count": 10, "status": "operating", "source": "Global Coal Plant Tracker, Global Energy Monitor, January 2026 release (CC BY 4.0)"}}, {"type": "Feature", "geometry": {"type": "Point", "coordinates": [121.769024, -2.2578515]}, "properties": {"name": "PT IHIP power station", "capacity_mw": 350.0, "unit_count": 3, "status": "operating", "source": "Global Coal Plant Tracker, Global Energy Monitor, January 2026 release (CC BY 4.0)"}}, {"type": "Feature", "geometry": {"type": "Point", "coordinates": [119.5511895, -5.617881]}, "properties": {"name": "Punagaya power station", "capacity_mw": 520.0, "unit_count": 4, "status": "operating", "source": "Global Coal Plant Tracker, Global Energy Monitor, January 2026 release (CC BY 4.0)"}}, {"type": "Feature", "geometry": {"type": "Point", "coordinates": [107.413652, -6.553921]}, "properties": {"name": "Purwakarta Indorama power station", "capacity_mw": 60.0, "unit_count": 2, "status": "operating", "source": "Global Coal Plant Tracker, Global Energy Monitor, January 2026 release (CC BY 4.0)"}}, {"type": "Feature", "geometry": {"type": "Point", "coordinates": [122.261559, -3.04035]}, "properties": {"name": "Qingdao Zhongsheng captive power station", "capacity_mw": 130.0, "unit_count": 2, "status": "operating", "source": "Global Coal Plant Tracker, Global Energy Monitor, January 2026 release (CC BY 4.0)"}}, {"type": "Feature", "geometry": {"type": "Point", "coordinates": [111.4749, -6.636]}, "properties": {"name": "Rembang power station", "capacity_mw": 630.0, "unit_count": 2, "status": "operating", "source": "Global Coal Plant Tracker, Global Energy Monitor, January 2026 release (CC BY 4.0)"}}, {"type": "Feature", "geometry": {"type": "Point", "coordinates": [104.118633, -3.401381]}, "properties": {"name": "Shenhua Guohua power station", "capacity_mw": 300.0, "unit_count": 2, "status": "operating", "source": "Global Coal Plant Tracker, Global Energy Monitor, January 2026 release (CC BY 4.0)"}}, {"type": "Feature", "geometry": {"type": "Point", "coordinates": [103.0821, -1.0069]}, "properties": {"name": "Sinar Mas Jambi Lontar power station", "capacity_mw": 211.0, "unit_count": 4, "status": "operating", "source": "Global Coal Plant Tracker, Global Energy Monitor, January 2026 release (CC BY 4.0)"}}, {"type": "Feature", "geometry": {"type": "Point", "coordinates": [122.1692807, -2.8688307]}, "properties": {"name": "Sulawesi Labota power station", "capacity_mw": 3360.0, "unit_count": 9, "status": "operating", "source": "Global Coal Plant Tracker, Global Energy Monitor, January 2026 release (CC BY 4.0)"}}, {"type": "Feature", "geometry": {"type": "Point", "coordinates": [122.1552699, -2.827384]}, "properties": {"name": "Sulawesi Mining power station", "capacity_mw": 2080.0, "unit_count": 9, "status": "operating", "source": "Global Coal Plant Tracker, Global Energy Monitor, January 2026 release (CC BY 4.0)"}}, {"type": "Feature", "geometry": {"type": "Point", "coordinates": [122.941575, 0.942698]}, "properties": {"name": "Sulbagut-1 power station", "capacity_mw": 100.0, "unit_count": 2, "status": "operating", "source": "Global Coal Plant Tracker, Global Energy Monitor, January 2026 release (CC BY 4.0)"}}, {"type": "Feature", "geometry": {"type": "Point", "coordinates": [125.085455, 1.374331]}, "properties": {"name": "Sulut-3 power station", "capacity_mw": 100.0, "unit_count": 2, "status": "operating", "source": "Global Coal Plant Tracker, Global Energy Monitor, January 2026 release (CC BY 4.0)"}}, {"type": "Feature", "geometry": {"type": "Point", "coordinates": [103.999167, -3.476667]}, "properties": {"name": "Sumsel-1 power station", "capacity_mw": 700.0, "unit_count": 2, "status": "operating", "source": "Global Coal Plant Tracker, Global Energy Monitor, January 2026 release (CC BY 4.0)"}}, {"type": "Feature", "geometry": {"type": "Point", "coordinates": [103.7552716, -2.1562529]}, "properties": {"name": "Sumsel-5 power station", "capacity_mw": 300.0, "unit_count": 2, "status": "operating", "source": "Global Coal Plant Tracker, Global Energy Monitor, January 2026 release (CC BY 4.0)"}}, {"type": "Feature", "geometry": {"type": "Point", "coordinates": [115.440814, -2.163427]}, "properties": {"name": "Tabalong power station", "capacity_mw": 200.0, "unit_count": 2, "status": "operating", "source": "Global Coal Plant Tracker, Global Energy Monitor, January 2026 release (CC BY 4.0)"}}, {"type": "Feature", "geometry": {"type": "Point", "coordinates": [115.445925, -2.158586]}, "properties": {"name": "Tabalong Wisesa power station", "capacity_mw": 60.0, "unit_count": 2, "status": "operating", "source": "Global Coal Plant Tracker, Global Energy Monitor, January 2026 release (CC BY 4.0)"}}, {"type": "Feature", "geometry": {"type": "Point", "coordinates": [119.550822, -5.623635]}, "properties": {"name": "Takalar power station", "capacity_mw": 200.0, "unit_count": 2, "status": "operating", "source": "Global Coal Plant Tracker, Global Energy Monitor, January 2026 release (CC BY 4.0)"}}, {"type": "Feature", "geometry": {"type": "Point", "coordinates": [111.995503, -6.810524]}, "properties": {"name": "Tanjung Awar-Awar power station", "capacity_mw": 700.0, "unit_count": 2, "status": "operating", "source": "Global Coal Plant Tracker, Global Energy Monitor, January 2026 release (CC BY 4.0)"}}, {"type": "Feature", "geometry": {"type": "Point", "coordinates": [110.742359, -6.446488]}, "properties": {"name": "Tanjung Jati B power station", "capacity_mw": 4640.0, "unit_count": 6, "status": "operating", "source": "Global Coal Plant Tracker, Global Energy Monitor, January 2026 release (CC BY 4.0)"}}, {"type": "Feature", "geometry": {"type": "Point", "coordinates": [104.135714, 1.044137]}, "properties": {"name": "Tanjung Kasam power station", "capacity_mw": 130.0, "unit_count": 2, "status": "operating", "source": "Global Coal Plant Tracker, Global Energy Monitor, January 2026 release (CC BY 4.0)"}}, {"type": "Feature", "geometry": {"type": "Point", "coordinates": [105.353477, -5.521207]}, "properties": {"name": "Tarahan power station", "capacity_mw": 200.0, "unit_count": 2, "status": "operating", "source": "Global Coal Plant Tracker, Global Energy Monitor, January 2026 release (CC BY 4.0)"}}, {"type": "Feature", "geometry": {"type": "Point", "coordinates": [100.3724, -1.07655]}, "properties": {"name": "Teluk Sirih power station", "capacity_mw": 224.0, "unit_count": 2, "status": "operating", "source": "Global Coal Plant Tracker, Global Energy Monitor, January 2026 release (CC BY 4.0)"}}, {"type": "Feature", "geometry": {"type": "Point", "coordinates": [123.459882, -10.351964]}, "properties": {"name": "Timor-1 power station", "capacity_mw": 100.0, "unit_count": 2, "status": "operating", "source": "Global Coal Plant Tracker, Global Energy Monitor, January 2026 release (CC BY 4.0)"}}, {"type": "Feature", "geometry": {"type": "Point", "coordinates": [112.468802, -7.436835]}, "properties": {"name": "Tjiwi Kimia Paper Mill power station", "capacity_mw": 230.0, "unit_count": 4, "status": "operating", "source": "Global Coal Plant Tracker, Global Energy Monitor, January 2026 release (CC BY 4.0)"}}, {"type": "Feature", "geometry": {"type": "Point", "coordinates": [119.501684, -4.816711]}, "properties": {"name": "Tonasa Cement Plant power station", "capacity_mw": 70.0, "unit_count": 2, "status": "operating", "source": "Global Coal Plant Tracker, Global Energy Monitor, January 2026 release (CC BY 4.0)"}}, {"type": "Feature", "geometry": {"type": "Point", "coordinates": [122.030621, -2.730952]}, "properties": {"name": "Wanxiang Nickel Indonesia power station", "capacity_mw": 130.0, "unit_count": 2, "status": "operating", "source": "Global Coal Plant Tracker, Global Energy Monitor, January 2026 release (CC BY 4.0)"}}, {"type": "Feature", "geometry": {"type": "Point", "coordinates": [127.984206, 0.478894]}, "properties": {"name": "Weda Bay power station", "capacity_mw": 4540.0, "unit_count": 14, "status": "operating", "source": "Global Coal Plant Tracker, Global Energy Monitor, January 2026 release (CC BY 4.0)"}}, {"type": "Feature", "geometry": {"type": "Point", "coordinates": [127.418975, -1.530514]}, "properties": {"name": "Xinxing Ductile Iron Pipes power station", "capacity_mw": 152.0, "unit_count": 4, "status": "operating", "source": "Global Coal Plant Tracker, Global Energy Monitor, January 2026 release (CC BY 4.0)"}}]}