{"type": "FeatureCollection", "features": [{"type": "Feature", "geometry": {"type": "Point", "coordinates": [122.19841666699995, -4.401138888999981]}, "properties": {"nama_perusahaan": "BINTANG SMELTER INDONESIA", "komoditas": "nikel", "kapasitas_input_ton": 2500000, "kapasitas_output_ton": 250000, "kabupaten_kota": "KAB. KONAWE SELATAN", "provinsi": "SULAWESI TENGGARA", "tahun_mulai_operasi": 2021, "source": "MODI (Minerba One Data Indonesia), Ditjen Minerba ESDM"}}, {"type": "Feature", "geometry": {"type": "Point", "coordinates": [106.340416667, -6.18525]}, "properties": {"nama_perusahaan": "CAHAYA MODERN METAL INDUSTRI", "komoditas": "nikel", "kapasitas_input_ton": 1200000, "kapasitas_output_ton": 97458, "kabupaten_kota": "KOTA SERANG", "provinsi": "BANTEN", "tahun_mulai_operasi": 2019, "source": "MODI (Minerba One Data Indonesia), Ditjen Minerba ESDM"}}, {"type": "Feature", "geometry": {"type": "Point", "coordinates": [122.418925, -3.90365]}, "properties": {"nama_perusahaan": "VIRTUE DRAGON NICKEL INDUSTRY", "komoditas": "nikel", "kapasitas_input_ton": 10000000, "kapasitas_output_ton": 1000000, "kabupaten_kota": "KAB. KONAWE UTARA", "provinsi": "SULAWESI TENGGARA", "tahun_mulai_operasi": 2021, "source": "MODI (Minerba One Data Indonesia), Ditjen Minerba ESDM"}}, {"type": "Feature", "geometry": {"type": "Point", "coordinates": [106.315277778, -6.188333333]}, "properties": {"nama_perusahaan": "CENTURY METALINDO", "komoditas": "nikel", "kapasitas_input_ton": 641026, "kapasitas_output_ton": 24459, "kabupaten_kota": "KAB. SERANG", "provinsi": "BANTEN", "tahun_mulai_operasi": 2021, "source": "MODI (Minerba One Data Indonesia), Ditjen Minerba ESDM"}}, {"type": "Feature", "geometry": {"type": "Point", "coordinates": [108.914130495, 0.503855935999979]}, "properties": {"nama_perusahaan": "BORNEO ALUMINA INDONESIA", "komoditas": "bauksit", "kapasitas_input_ton": 3529400, "kapasitas_output_ton": 1000000, "kabupaten_kota": "KAB. MEMPAWAH", "provinsi": "KALIMANTAN BARAT", "tahun_mulai_operasi": 2021, "source": "MODI (Minerba One Data Indonesia), Ditjen Minerba ESDM"}}, {"type": "Feature", "geometry": {"type": "Point", "coordinates": [129.39508873900002, -0.067536057999973]}, "properties": {"nama_perusahaan": "FAJAR BHAKTI LINTAS NUSANTARA", "komoditas": "nikel", "kapasitas_input_ton": 1065600, "kapasitas_output_ton": 120000, "kabupaten_kota": "KAB. HALMAHERA TENGAH", "provinsi": "MALUKU UTARA", "tahun_mulai_operasi": 2015, "source": "MODI (Minerba One Data Indonesia), Ditjen Minerba ESDM"}}, {"type": "Feature", "geometry": {"type": "Point", "coordinates": [112.61233333300004, -7.132694443999981]}, "properties": {"nama_perusahaan": "GEBE INDUSTRY NICKEL", "komoditas": "nikel", "kapasitas_input_ton": 641026, "kapasitas_output_ton": 10000, "kabupaten_kota": "KAB. HALMAHERA TENGAH", "provinsi": "MALUKU UTARA", "tahun_mulai_operasi": 2015, "source": "MODI (Minerba One Data Indonesia), Ditjen Minerba ESDM"}}, {"type": "Feature", "geometry": {"type": "Point", "coordinates": [110.08665, -0.356322]}, "properties": {"nama_perusahaan": "DINAMIKA SEJAHTERA MANDIRI", "komoditas": "bauksit", "kapasitas_input_ton": 5200000, "kapasitas_output_ton": 2000000, "kabupaten_kota": "KAB. SANGGAU", "provinsi": "KALIMANTAN BARAT", "tahun_mulai_operasi": 2021, "source": "MODI (Minerba One Data Indonesia), Ditjen Minerba ESDM"}}, {"type": "Feature", "geometry": {"type": "Point", "coordinates": [127.43418888899998, -1.45930277799999]}, "properties": {"nama_perusahaan": "WANATIARA PERSADA", "komoditas": "nikel", "kapasitas_input_ton": 2229656, "kapasitas_output_ton": 161740, "kabupaten_kota": "KAB. HALMAHERA SELATAN", "provinsi": "MALUKU UTARA", "tahun_mulai_operasi": 2019, "source": "MODI (Minerba One Data Indonesia), Ditjen Minerba ESDM"}}, {"type": "Feature", "geometry": {"type": "Point", "coordinates": [110.229112, -0.01388]}, "properties": {"nama_perusahaan": "KALBAR BUMI PERKASA", "komoditas": "bauksit", "kapasitas_input_ton": 4200000, "kapasitas_output_ton": 1500000, "kabupaten_kota": "KAB. SANGGAU", "provinsi": "KALIMANTAN BARAT", "tahun_mulai_operasi": 2021, "source": "MODI (Minerba One Data Indonesia), Ditjen Minerba ESDM"}}, {"type": "Feature", "geometry": {"type": "Point", "coordinates": [112.996437, -2.135839]}, "properties": {"nama_perusahaan": "PARENGGEAN MAKMUR SEJAHTERA", "komoditas": "bauksit", "kapasitas_input_ton": 3000000, "kapasitas_output_ton": 986000, "kabupaten_kota": "KAB. KOTAWARINGIN TIMUR", "provinsi": "KALIMANTAN TENGAH", "tahun_mulai_operasi": 2021, "source": "MODI (Minerba One Data Indonesia), Ditjen Minerba ESDM"}}, {"type": "Feature", "geometry": {"type": "Point", "coordinates": [128.24879084999998, 0.84495709]}, "properties": {"nama_perusahaan": "ANEKA TAMBANG TBK", "komoditas": "nikel", "kapasitas_input_ton": 1219945, "kapasitas_output_ton": 64655, "kabupaten_kota": "KAB. HALMAHERA TIMUR", "provinsi": "MALUKU UTARA", "tahun_mulai_operasi": 2021, "source": "MODI (Minerba One Data Indonesia), Ditjen Minerba ESDM"}}, {"type": "Feature", "geometry": {"type": "Point", "coordinates": [122.27055527799996, -3.048884722000025]}, "properties": {"nama_perusahaan": "ARTHABUMI SENTRA INDUSTRI", "komoditas": "nikel", "kapasitas_input_ton": 720000, "kapasitas_output_ton": 72965, "kabupaten_kota": "KAB. MOROWALI", "provinsi": "SULAWESI TENGAH", "tahun_mulai_operasi": 2021, "source": "MODI (Minerba One Data Indonesia), Ditjen Minerba ESDM"}}, {"type": "Feature", "geometry": {"type": "Point", "coordinates": [122.028675, -2.738569444]}, "properties": {"nama_perusahaan": "WANXIANG NICKEL INDONESIA", "komoditas": "nikel", "kapasitas_input_ton": 3500000, "kapasitas_output_ton": 351018, "kabupaten_kota": "KAB. MOROWALI", "provinsi": "SULAWESI TENGAH", "tahun_mulai_operasi": 2021, "source": "MODI (Minerba One Data Indonesia), Ditjen Minerba ESDM"}}, {"type": "Feature", "geometry": {"type": "Point", "coordinates": [122.356583333, -4.455694444000017]}, "properties": {"nama_perusahaan": "MACIKA MINERAL INDUSTRI", "komoditas": "nikel", "kapasitas_input_ton": 1105056, "kapasitas_output_ton": 93000, "kabupaten_kota": "KAB. KONAWE SELATAN", "provinsi": "SULAWESI TENGGARA", "tahun_mulai_operasi": 2021, "source": "MODI (Minerba One Data Indonesia), Ditjen Minerba ESDM"}}, {"type": "Feature", "geometry": {"type": "Point", "coordinates": [122.085327237, -2.797736295999982]}, "properties": {"nama_perusahaan": "ANG AND FANG BROTHER", "komoditas": "nikel", "kapasitas_input_ton": 1866510, "kapasitas_output_ton": 130508, "kabupaten_kota": "KAB. MOROWALI", "provinsi": "SULAWESI TENGAH", "tahun_mulai_operasi": 2021, "source": "MODI (Minerba One Data Indonesia), Ditjen Minerba ESDM"}}, {"type": "Feature", "geometry": {"type": "Point", "coordinates": [126.27888888899997, -7.70794444400002]}, "properties": {"nama_perusahaan": "BATUTUA TEMBAGA RAYA", "komoditas": "tembaga", "kapasitas_input_ton": 1400000, "kapasitas_output_ton": 25000, "kabupaten_kota": "KAB. MALUKU BARAT DAYA", "provinsi": "MALUKU", "tahun_mulai_operasi": 2014, "source": "MODI (Minerba One Data Indonesia), Ditjen Minerba ESDM"}}, {"type": "Feature", "geometry": {"type": "Point", "coordinates": [112.63011111100002, -7.078388889]}, "properties": {"nama_perusahaan": "FREEPORT INDONESIA", "komoditas": "tembaga", "kapasitas_input_ton": 2000000, "kapasitas_output_ton": 500000, "kabupaten_kota": "KAB. GRESIK", "provinsi": "JAWA TIMUR", "tahun_mulai_operasi": 2019, "source": "MODI (Minerba One Data Indonesia), Ditjen Minerba ESDM"}}, {"type": "Feature", "geometry": {"type": "Point", "coordinates": [111.799645, -2.636737]}, "properties": {"nama_perusahaan": "KOBAR LAMANDAU MINERAL", "komoditas": "seng", "kapasitas_input_ton": 60000, "kapasitas_output_ton": 29319, "kabupaten_kota": "KAB. KOTAWARINGIN BARAT", "provinsi": "KALIMANTAN TENGAH", "tahun_mulai_operasi": 2021, "source": "MODI (Minerba One Data Indonesia), Ditjen Minerba ESDM"}}, {"type": "Feature", "geometry": {"type": "Point", "coordinates": [112.814682, -7.629948]}, "properties": {"nama_perusahaan": "PRIMIER BUDIDAYA INDUSTRI", "komoditas": "mangan", "kapasitas_input_ton": 23974, "kapasitas_output_ton": 16186, "kabupaten_kota": "KAB. PASURUAN", "provinsi": "JAWA TIMUR", "tahun_mulai_operasi": 2013, "source": "MODI (Minerba One Data Indonesia), Ditjen Minerba ESDM"}}, {"type": "Feature", "geometry": {"type": "Point", "coordinates": [110.142034, -0.060767]}, "properties": {"nama_perusahaan": "INDONESIA CHEMICAL ALUMINA", "komoditas": "bauksit", "kapasitas_input_ton": 1000000, "kapasitas_output_ton": 300000, "kabupaten_kota": "KAB. SANGGAU", "provinsi": "KALIMANTAN BARAT", "tahun_mulai_operasi": 2013, "source": "MODI (Minerba One Data Indonesia), Ditjen Minerba ESDM"}}, {"type": "Feature", "geometry": {"type": "Point", "coordinates": [128.26165661599998, 0.848064790000024]}, "properties": {"nama_perusahaan": "ANEKA TAMBANG TBK (NITERRA HALTIM)", "komoditas": "nikel", "kapasitas_input_ton": 1427300, "kapasitas_output_ton": 160000, "kabupaten_kota": "KAB. HALMAHERA TIMUR", "provinsi": "MALUKU UTARA", "tahun_mulai_operasi": 2021, "source": "MODI (Minerba One Data Indonesia), Ditjen Minerba ESDM"}}, {"type": "Feature", "geometry": {"type": "Point", "coordinates": [121.298, -3.853476]}, "properties": {"nama_perusahaan": "CERIA NUGRAHA INDOTAMA", "komoditas": "nikel", "kapasitas_input_ton": 5636000, "kapasitas_output_ton": 252728, "kabupaten_kota": "KAB. KOLAKA", "provinsi": "SULAWESI TENGGARA", "tahun_mulai_operasi": 2021, "source": "MODI (Minerba One Data Indonesia), Ditjen Minerba ESDM"}}, {"type": "Feature", "geometry": {"type": "Point", "coordinates": [106.45636111099998, -6.211083332999976]}, "properties": {"nama_perusahaan": "SMELTER NIKEL INDONESIA", "komoditas": "nikel", "kapasitas_input_ton": 2401920, "kapasitas_output_ton": 76000, "kabupaten_kota": "KAB. TANGERANG", "provinsi": "BANTEN", "tahun_mulai_operasi": 2019, "source": "MODI (Minerba One Data Indonesia), Ditjen Minerba ESDM"}}, {"type": "Feature", "geometry": {"type": "Point", "coordinates": [121.97555555600002, -4.8975]}, "properties": {"nama_perusahaan": "ARTHA MINING INDUSTRY", "komoditas": "nikel", "kapasitas_input_ton": 2000000, "kapasitas_output_ton": 200000, "kabupaten_kota": "KAB. BOMBANA", "provinsi": "SULAWESI TENGGARA", "tahun_mulai_operasi": 2021, "source": "MODI (Minerba One Data Indonesia), Ditjen Minerba ESDM"}}, {"type": "Feature", "geometry": {"type": "Point", "coordinates": [127.42386111099995, -1.537722222000014]}, "properties": {"nama_perusahaan": "HALMAHERA PERSADA LYGEND", "komoditas": "nikel", "kapasitas_input_ton": 5213847, "kapasitas_output_ton": 96000, "kabupaten_kota": "KAB. HALMAHERA SELATAN", "provinsi": "MALUKU UTARA", "tahun_mulai_operasi": 2021, "source": "MODI (Minerba One Data Indonesia), Ditjen Minerba ESDM"}}, {"type": "Feature", "geometry": {"type": "Point", "coordinates": [121.56605555600004, -4.271861111000021]}, "properties": {"nama_perusahaan": "MAPAN ASRI SEJAHTERA", "komoditas": "nikel", "kapasitas_input_ton": 210000, "kapasitas_output_ton": 21531, "kabupaten_kota": "KAB. KOLAKA", "provinsi": "SULAWESI TENGGARA", "tahun_mulai_operasi": 2021, "source": "MODI (Minerba One Data Indonesia), Ditjen Minerba ESDM"}}, {"type": "Feature", "geometry": {"type": "Point", "coordinates": [121.9101025, -2.68478611099999]}, "properties": {"nama_perusahaan": "SULAWESI RESOURCES", "komoditas": "nikel", "kapasitas_input_ton": 2400000, "kapasitas_output_ton": 152400, "kabupaten_kota": "KAB. MOROWALI", "provinsi": "SULAWESI TENGAH", "tahun_mulai_operasi": 2021, "source": "MODI (Minerba One Data Indonesia), Ditjen Minerba ESDM"}}, {"type": "Feature", "geometry": {"type": "Point", "coordinates": [121.60051013700001, -4.180220652]}, "properties": {"nama_perusahaan": "ANEKA TAMBANG TBK (POMALAA)", "komoditas": "nikel", "kapasitas_input_ton": 1450000, "kapasitas_output_ton": 90000, "kabupaten_kota": "KAB. KOLAKA", "provinsi": "SULAWESI TENGGARA", "tahun_mulai_operasi": 2010, "source": "MODI (Minerba One Data Indonesia), Ditjen Minerba ESDM"}}, {"type": "Feature", "geometry": {"type": "Point", "coordinates": [121.378164, -2.570292]}, "properties": {"nama_perusahaan": "VALE INDONESIA TBK", "komoditas": "nikel", "kapasitas_input_ton": 8000000, "kapasitas_output_ton": 80000, "kabupaten_kota": "KAB. LUWU TIMUR", "provinsi": "SULAWESI SELATAN", "tahun_mulai_operasi": 2010, "source": "MODI (Minerba One Data Indonesia), Ditjen Minerba ESDM"}}, {"type": "Feature", "geometry": {"type": "Point", "coordinates": [121.32164329299997, -1.942154159999973]}, "properties": {"nama_perusahaan": "COR INDUSTRI INDONESIA", "komoditas": "nikel", "kapasitas_input_ton": 855556, "kapasitas_output_ton": 92400, "kabupaten_kota": "KAB. MOROWALI UTARA", "provinsi": "SULAWESI TENGAH", "tahun_mulai_operasi": 2017, "source": "MODI (Minerba One Data Indonesia), Ditjen Minerba ESDM"}}, {"type": "Feature", "geometry": {"type": "Point", "coordinates": [122.161811897, -2.8258]}, "properties": {"nama_perusahaan": "SULAWESI MINING INVESTMENT", "komoditas": "nikel", "kapasitas_input_ton": 3000000, "kapasitas_output_ton": 300000, "kabupaten_kota": "KAB. MOROWALI", "provinsi": "SULAWESI TENGAH", "tahun_mulai_operasi": 2015, "source": "MODI (Minerba One Data Indonesia), Ditjen Minerba ESDM"}}, {"type": "Feature", "geometry": {"type": "Point", "coordinates": [127.99393152599998, 0.477904868]}, "properties": {"nama_perusahaan": "WEDA BAY NICKEL", "komoditas": "nikel", "kapasitas_input_ton": 3000000, "kapasitas_output_ton": 300000, "kabupaten_kota": "KAB. HALMAHERA TENGAH", "provinsi": "MALUKU UTARA", "tahun_mulai_operasi": 2020, "source": "MODI (Minerba One Data Indonesia), Ditjen Minerba ESDM"}}, {"type": "Feature", "geometry": {"type": "Point", "coordinates": [127.91089763900004, 0.47035066699999]}, "properties": {"nama_perusahaan": "TEKA MINING RESOURCES", "komoditas": "nikel", "kapasitas_input_ton": 3000000, "kapasitas_output_ton": 300000, "kabupaten_kota": "KAB. HALMAHERA TENGAH", "provinsi": "MALUKU UTARA", "tahun_mulai_operasi": 2021, "source": "MODI (Minerba One Data Indonesia), Ditjen Minerba ESDM"}}, {"type": "Feature", "geometry": {"type": "Point", "coordinates": [128.00881927199998, 1.424913340999979]}, "properties": {"nama_perusahaan": "ALCHEMIST METAL INDUSTRY", "komoditas": "besi", "kapasitas_input_ton": 3031621, "kapasitas_output_ton": 1600000, "kabupaten_kota": "KAB. HALMAHERA UTARA", "provinsi": "MALUKU UTARA", "tahun_mulai_operasi": 2021, "source": "MODI (Minerba One Data Indonesia), Ditjen Minerba ESDM"}}, {"type": "Feature", "geometry": {"type": "Point", "coordinates": [120.06687995499999, -5.578747399]}, "properties": {"nama_perusahaan": "SINAR DELI BANTAENG", "komoditas": "nikel", "kapasitas_input_ton": 2400000, "kapasitas_output_ton": 238000, "kabupaten_kota": "KAB. BANTAENG", "provinsi": "SULAWESI SELATAN", "tahun_mulai_operasi": 2021, "source": "MODI (Minerba One Data Indonesia), Ditjen Minerba ESDM"}}, {"type": "Feature", "geometry": {"type": "Point", "coordinates": [122.16829230099995, -2.831700715000011]}, "properties": {"nama_perusahaan": "TSINGSHAN STEEL INDONESIA", "komoditas": "nikel", "kapasitas_input_ton": 4500000, "kapasitas_output_ton": 507000, "kabupaten_kota": "KAB. MOROWALI", "provinsi": "SULAWESI TENGAH", "tahun_mulai_operasi": 2017, "source": "MODI (Minerba One Data Indonesia), Ditjen Minerba ESDM"}}, {"type": "Feature", "geometry": {"type": "Point", "coordinates": [110.248805618, 0.042155526999977]}, "properties": {"nama_perusahaan": "QUALITY SUKSES SEJAHTERA", "komoditas": "bauksit", "kapasitas_input_ton": 3512058, "kapasitas_output_ton": 1500000, "kabupaten_kota": "KOTA PONTIANAK", "provinsi": "KALIMANTAN BARAT", "tahun_mulai_operasi": 2021, "source": "MODI (Minerba One Data Indonesia), Ditjen Minerba ESDM"}}, {"type": "Feature", "geometry": {"type": "Point", "coordinates": [106.7, -7.4242]}, "properties": {"nama_perusahaan": "SUMBER BAJA PRIMA", "komoditas": "besi", "kapasitas_input_ton": 65847, "kapasitas_output_ton": 36367, "kabupaten_kota": "KAB. SUKABUMI", "provinsi": "JAWA BARAT", "tahun_mulai_operasi": 2017, "source": "MODI (Minerba One Data Indonesia), Ditjen Minerba ESDM"}}, {"type": "Feature", "geometry": {"type": "Point", "coordinates": [127.72134767399996, 1.949443227000017]}, "properties": {"nama_perusahaan": "KARUNIA MITRA ABADI", "komoditas": "besi", "kapasitas_input_ton": 1500000, "kapasitas_output_ton": 601920, "kabupaten_kota": "KAB. HALMAHERA BARAT", "provinsi": "MALUKU UTARA", "tahun_mulai_operasi": 2021, "source": "MODI (Minerba One Data Indonesia), Ditjen Minerba ESDM"}}, {"type": "Feature", "geometry": {"type": "Point", "coordinates": [110.810793531, -2.108635935]}, "properties": {"nama_perusahaan": "SUMBER BUMI MARAU", "komoditas": "bauksit", "kapasitas_input_ton": 2600000, "kapasitas_output_ton": 1000000, "kabupaten_kota": "KAB. KETAPANG", "provinsi": "KALIMANTAN BARAT", "tahun_mulai_operasi": 2020, "source": "MODI (Minerba One Data Indonesia), Ditjen Minerba ESDM"}}, {"type": "Feature", "geometry": {"type": "Point", "coordinates": [110.290545474, -0.190314989]}, "properties": {"nama_perusahaan": "PERSADA PRATAMA CEMERLANG", "komoditas": "bauksit", "kapasitas_input_ton": 2524918, "kapasitas_output_ton": 1000000, "kabupaten_kota": "KAB. SANGGAU", "provinsi": "KALIMANTAN BARAT", "tahun_mulai_operasi": 2021, "source": "MODI (Minerba One Data Indonesia), Ditjen Minerba ESDM"}}, {"type": "Feature", "geometry": {"type": "Point", "coordinates": [127.42256297400002, -1.529846153999983]}, "properties": {"nama_perusahaan": "MEGAH SURYA PERTIWI", "komoditas": "nikel", "kapasitas_input_ton": 2079733, "kapasitas_output_ton": 198158, "kabupaten_kota": "KAB. HALMAHERA SELATAN", "provinsi": "MALUKU UTARA", "tahun_mulai_operasi": 2016, "source": "MODI (Minerba One Data Indonesia), Ditjen Minerba ESDM"}}, {"type": "Feature", "geometry": {"type": "Point", "coordinates": [127.425086, -1.530072]}, "properties": {"nama_perusahaan": "MEGAH SURYA PERTIWI", "komoditas": "nikel", "kapasitas_input_ton": 693238, "kapasitas_output_ton": 66053, "kabupaten_kota": "KAB. HALMAHERA SELATAN", "provinsi": "MALUKU UTARA", "tahun_mulai_operasi": 2017, "source": "MODI (Minerba One Data Indonesia), Ditjen Minerba ESDM"}}, {"type": "Feature", "geometry": {"type": "Point", "coordinates": [122.636298, -4.006446]}, "properties": {"nama_perusahaan": "MAHKOTA KONAWEEHA", "komoditas": "nikel", "kapasitas_input_ton": 1343628, "kapasitas_output_ton": 62000, "kabupaten_kota": "KOTA KENDARI", "provinsi": "SULAWESI TENGGARA", "tahun_mulai_operasi": 2021, "source": "MODI (Minerba One Data Indonesia), Ditjen Minerba ESDM"}}, {"type": "Feature", "geometry": {"type": "Point", "coordinates": [116.81315223399997, -8.982342614]}, "properties": {"nama_perusahaan": "AMMAN MINERAL NUSA TENGGARA", "komoditas": "tembaga", "kapasitas_input_ton": 900000, "kapasitas_output_ton": 222000, "kabupaten_kota": "KAB. SUMBAWA BARAT", "provinsi": "NUSA TENGGARA BARAT", "tahun_mulai_operasi": 2021, "source": "MODI (Minerba One Data Indonesia), Ditjen Minerba ESDM"}}, {"type": "Feature", "geometry": {"type": "Point", "coordinates": [110.159524, -2.361589]}, "properties": {"nama_perusahaan": "WELL HARVEST WINNING ALUMINA REFINERY", "komoditas": "bauksit", "kapasitas_input_ton": 4039200, "kapasitas_output_ton": 1000000, "kabupaten_kota": "KAB. KETAPANG", "provinsi": "KALIMANTAN BARAT", "tahun_mulai_operasi": 2018, "source": "MODI (Minerba One Data Indonesia), Ditjen Minerba ESDM"}}, {"type": "Feature", "geometry": {"type": "Point", "coordinates": [110.16586, -2.36206]}, "properties": {"nama_perusahaan": "WELL HARVEST WINNING ALUMINA REFINERY", "komoditas": "bauksit", "kapasitas_input_ton": 3564000, "kapasitas_output_ton": 1000000, "kabupaten_kota": "KAB. KETAPANG", "provinsi": "KALIMANTAN BARAT", "tahun_mulai_operasi": 2021, "source": "MODI (Minerba One Data Indonesia), Ditjen Minerba ESDM"}}, {"type": "Feature", "geometry": {"type": "Point", "coordinates": [110.180256, -1.452759]}, "properties": {"nama_perusahaan": "LAMAN MINING", "komoditas": "bauksit", "kapasitas_input_ton": 2850000, "kapasitas_output_ton": 1000000, "kabupaten_kota": "KAB. KETAPANG", "provinsi": "KALIMANTAN BARAT", "tahun_mulai_operasi": 2021, "source": "MODI (Minerba One Data Indonesia), Ditjen Minerba ESDM"}}, {"type": "Feature", "geometry": {"type": "Point", "coordinates": [123.49304, -10.237122]}, "properties": {"nama_perusahaan": "GULF MANGAN GRUP", "komoditas": "mangan", "kapasitas_input_ton": 103162, "kapasitas_output_ton": 40379, "kabupaten_kota": "KAB. KUPANG", "provinsi": "NUSA TENGGARA TIMUR", "tahun_mulai_operasi": 2021, "source": "MODI (Minerba One Data Indonesia), Ditjen Minerba ESDM"}}, {"type": "Feature", "geometry": {"type": "Point", "coordinates": [111.799166667, -2.636388888999988]}, "properties": {"nama_perusahaan": "KAPUAS PRIMA CITRA", "komoditas": "timbal", "kapasitas_input_ton": 36000, "kapasitas_output_ton": 22924, "kabupaten_kota": "KAB. KOTAWARINGIN BARAT", "provinsi": "KALIMANTAN TENGAH", "tahun_mulai_operasi": 2021, "source": "MODI (Minerba One Data Indonesia), Ditjen Minerba ESDM"}}, {"type": "Feature", "geometry": {"type": "Point", "coordinates": [116.38340469299999, -3.44292192099999]}, "properties": {"nama_perusahaan": "SEBUKU IRON LATERITIC ORES", "komoditas": "besi", "kapasitas_input_ton": 4725000, "kapasitas_output_ton": 1701325, "kabupaten_kota": "KAB. KOTABARU", "provinsi": "KALIMANTAN SELATAN", "tahun_mulai_operasi": 2021, "source": "MODI (Minerba One Data Indonesia), Ditjen Minerba ESDM"}}, {"type": "Feature", "geometry": {"type": "Point", "coordinates": [112.635551, -7.141255]}, "properties": {"nama_perusahaan": "SMELTING", "komoditas": "tembaga", "kapasitas_input_ton": 1000000, "kapasitas_output_ton": 300000, "kabupaten_kota": "KAB. GRESIK", "provinsi": "JAWA TIMUR", "tahun_mulai_operasi": 2010, "source": "MODI (Minerba One Data Indonesia), Ditjen Minerba ESDM"}}]}