{"type": "FeatureCollection", "features": [{"type": "Feature", "geometry": {"type": "Point", "coordinates": [111.94683, -7.74953]}, "properties": {"name": "Dhoho International Airport", "type": "medium_airport", "iata_code": "DHX", "icao_code": "WARD", "municipality": "Kediri", "scheduled_service": "yes", "source": "OurAirports (ourairports.com), public domain"}}, {"type": "Feature", "geometry": {"type": "Point", "coordinates": [135.4967, -3.36859]}, "properties": {"name": "Old Nabire Airport", "type": "medium_airport", "iata_code": "", "icao_code": "", "municipality": "Nabire", "scheduled_service": "yes", "source": "OurAirports (ourairports.com), public domain"}}, {"type": "Feature", "geometry": {"type": "Point", "coordinates": [100.352, -0.87499]}, "properties": {"name": "Tabing Airport", "type": "medium_airport", "iata_code": "", "icao_code": "", "municipality": "Padang", "scheduled_service": "yes", "source": "OurAirports (ourairports.com), public domain"}}, {"type": "Feature", "geometry": {"type": "Point", "coordinates": [111.47357, 0.06385]}, "properties": {"name": "Susilo Airport", "type": "medium_airport", "iata_code": "", "icao_code": "", "municipality": "Sintang", "scheduled_service": "no", "source": "OurAirports (ourairports.com), public domain"}}, {"type": "Feature", "geometry": {"type": "Point", "coordinates": [137.03118, -3.7395]}, "properties": {"name": "Bilorai Airport", "type": "medium_airport", "iata_code": "UGU", "icao_code": "", "municipality": "Bilogai", "scheduled_service": "yes", "source": "OurAirports (ourairports.com), public domain"}}, {"type": "Feature", "geometry": {"type": "Point", "coordinates": [119.5537, -5.07554]}, "properties": {"name": "Sultan Hasanuddin International Airport", "type": "large_airport", "iata_code": "UPG", "icao_code": "WAAA", "municipality": "Makassar", "scheduled_service": "yes", "source": "OurAirports (ourairports.com), public domain"}}, {"type": "Feature", "geometry": {"type": "Point", "coordinates": [136.108, -1.19002]}, "properties": {"name": "Frans Kaisiepo Airport", "type": "medium_airport", "iata_code": "BIK", "icao_code": "WABB", "municipality": "Biak", "scheduled_service": "yes", "source": "OurAirports (ourairports.com), public domain"}}, {"type": "Feature", "geometry": {"type": "Point", "coordinates": [135.39307, -3.39797]}, "properties": {"name": "Douw Aturure Airport", "type": "medium_airport", "iata_code": "NBX", "icao_code": "WABI", "municipality": "Nabire", "scheduled_service": "no", "source": "OurAirports (ourairports.com), public domain"}}, {"type": "Feature", "geometry": {"type": "Point", "coordinates": [136.0624, -1.82842]}, "properties": {"name": "Stevanus Rumbewas Airport", "type": "medium_airport", "iata_code": "ZRI", "icao_code": "WABO", "municipality": "Serui", "scheduled_service": "no", "source": "OurAirports (ourairports.com), public domain"}}, {"type": "Feature", "geometry": {"type": "Point", "coordinates": [136.88739, -4.52978]}, "properties": {"name": "Mozes Kilangin Airport", "type": "medium_airport", "iata_code": "TIM", "icao_code": "", "municipality": "Timika", "scheduled_service": "yes", "source": "OurAirports (ourairports.com), public domain"}}, {"type": "Feature", "geometry": {"type": "Point", "coordinates": [118.685, -8.53718]}, "properties": {"name": "Sultan Muhammad Salahuddin Airport", "type": "medium_airport", "iata_code": "BMU", "icao_code": "WADB", "municipality": "Bima", "scheduled_service": "yes", "source": "OurAirports (ourairports.com), public domain"}}, {"type": "Feature", "geometry": {"type": "Point", "coordinates": [115.16712, -8.74841]}, "properties": {"name": "Denpasar I Gusti Ngurah Rai International Airport", "type": "large_airport", "iata_code": "DPS", "icao_code": "WADD", "municipality": "Kuta, Badung", "scheduled_service": "yes", "source": "OurAirports (ourairports.com), public domain"}}, {"type": "Feature", "geometry": {"type": "Point", "coordinates": [116.27817, -8.75996]}, "properties": {"name": "Lombok International Airport", "type": "large_airport", "iata_code": "LOP", "icao_code": "WADL", "municipality": "Mataram (Pujut, Lombok Tengah)", "scheduled_service": "yes", "source": "OurAirports (ourairports.com), public domain"}}, {"type": "Feature", "geometry": {"type": "Point", "coordinates": [127.38161, 0.83101]}, "properties": {"name": "Sultan Babullah Airport", "type": "medium_airport", "iata_code": "TTE", "icao_code": "WAEE", "municipality": "Ternate", "scheduled_service": "yes", "source": "OurAirports (ourairports.com), public domain"}}, {"type": "Feature", "geometry": {"type": "Point", "coordinates": [128.325, 2.04599]}, "properties": {"name": "Pitu Airport", "type": "medium_airport", "iata_code": "OTI", "icao_code": "", "municipality": "Gotalalamo-Morotai Island", "scheduled_service": "no", "source": "OurAirports (ourairports.com), public domain"}}, {"type": "Feature", "geometry": {"type": "Point", "coordinates": [119.91775, -3.18583]}, "properties": {"name": "Toraja Airport", "type": "medium_airport", "iata_code": "TRT", "icao_code": "WAFB", "municipality": "Toraja", "scheduled_service": "yes", "source": "OurAirports (ourairports.com), public domain"}}, {"type": "Feature", "geometry": {"type": "Point", "coordinates": [119.90865, -0.91646]}, "properties": {"name": "Mutiara - SIS Al-Jufrie Airport", "type": "medium_airport", "iata_code": "PLW", "icao_code": "WAFF", "municipality": "Palu", "scheduled_service": "yes", "source": "OurAirports (ourairports.com), public domain"}}, {"type": "Feature", "geometry": {"type": "Point", "coordinates": [120.65924, -1.41412]}, "properties": {"name": "Kasiguncu Airport", "type": "medium_airport", "iata_code": "PSJ", "icao_code": "", "municipality": "Poso-Celebes Island", "scheduled_service": "no", "source": "OurAirports (ourairports.com), public domain"}}, {"type": "Feature", "geometry": {"type": "Point", "coordinates": [122.77393, -1.03589]}, "properties": {"name": "Syukuran Aminuddin Amir Airport", "type": "medium_airport", "iata_code": "LUW", "icao_code": "WAFW", "municipality": "Luwok", "scheduled_service": "no", "source": "OurAirports (ourairports.com), public domain"}}, {"type": "Feature", "geometry": {"type": "Point", "coordinates": [113.94339, -2.22715]}, "properties": {"name": "Tjilik Riwut Airport", "type": "medium_airport", "iata_code": "PKY", "icao_code": "WAGG", "municipality": "Palangkaraya", "scheduled_service": "yes", "source": "OurAirports (ourairports.com), public domain"}}, {"type": "Feature", "geometry": {"type": "Point", "coordinates": [110.05726, -7.90534]}, "properties": {"name": "Yogyakarta International Airport", "type": "large_airport", "iata_code": "YIA", "icao_code": "WAHI", "municipality": "Yogyakarta", "scheduled_service": "yes", "source": "OurAirports (ourairports.com), public domain"}}, {"type": "Feature", "geometry": {"type": "Point", "coordinates": [109.034, -7.64506]}, "properties": {"name": "Tunggul Wulung Airport", "type": "medium_airport", "iata_code": "CXP", "icao_code": "WAHL", "municipality": "Cilacap", "scheduled_service": "yes", "source": "OurAirports (ourairports.com), public domain"}}, {"type": "Feature", "geometry": {"type": "Point", "coordinates": [140.51986, -2.57963]}, "properties": {"name": "Dortheys Hiyo Eluay International Airport", "type": "large_airport", "iata_code": "DJJ", "icao_code": "WAJJ", "municipality": "Sentani", "scheduled_service": "yes", "source": "OurAirports (ourairports.com), public domain"}}, {"type": "Feature", "geometry": {"type": "Point", "coordinates": [140.6277, -4.9071]}, "properties": {"name": "Oksibil Airport", "type": "medium_airport", "iata_code": "OKL", "icao_code": "WAJO", "municipality": "Oksibil", "scheduled_service": "yes", "source": "OurAirports (ourairports.com), public domain"}}, {"type": "Feature", "geometry": {"type": "Point", "coordinates": [140.41969, -8.5239]}, "properties": {"name": "Mopah International Airport", "type": "medium_airport", "iata_code": "MKQ", "icao_code": "WAKK", "municipality": "Merauke", "scheduled_service": "yes", "source": "OurAirports (ourairports.com), public domain"}}, {"type": "Feature", "geometry": {"type": "Point", "coordinates": [140.30352, -6.09669]}, "properties": {"name": "Tanah Merah Airport", "type": "medium_airport", "iata_code": "TMH", "icao_code": "WAKT", "municipality": "Tanah Merah", "scheduled_service": "yes", "source": "OurAirports (ourairports.com), public domain"}}, {"type": "Feature", "geometry": {"type": "Point", "coordinates": [116.71193, -1.16053]}, "properties": {"name": "Nusantara International Airport", "type": "medium_airport", "iata_code": "", "icao_code": "WALK", "municipality": "Nusantara", "scheduled_service": "no", "source": "OurAirports (ourairports.com), public domain"}}, {"type": "Feature", "geometry": {"type": "Point", "coordinates": [116.89452, -1.26834]}, "properties": {"name": "Sultan Aji Muhammad Sulaiman Sepinggan International Airport", "type": "large_airport", "iata_code": "BPN", "icao_code": "WALL", "municipality": "Balikpapan", "scheduled_service": "yes", "source": "OurAirports (ourairports.com), public domain"}}, {"type": "Feature", "geometry": {"type": "Point", "coordinates": [117.56417, 3.32515]}, "properties": {"name": "Juwata International Airport / Suharnoko Harbani AFB", "type": "medium_airport", "iata_code": "TRK", "icao_code": "WAQQ", "municipality": "Tarakan", "scheduled_service": "yes", "source": "OurAirports (ourairports.com), public domain"}}, {"type": "Feature", "geometry": {"type": "Point", "coordinates": [117.25013, -0.37448]}, "properties": {"name": "Aji Pangeran Tumenggung Pranoto International Airport", "type": "medium_airport", "iata_code": "AAP", "icao_code": "WALS", "municipality": "Samarinda", "scheduled_service": "yes", "source": "OurAirports (ourairports.com), public domain"}}, {"type": "Feature", "geometry": {"type": "Point", "coordinates": [125.52716, 3.68478]}, "properties": {"name": "Naha Airport", "type": "medium_airport", "iata_code": "NAH", "icao_code": "WAMH", "municipality": "Tabukan Utara, Sangihe Islands", "scheduled_service": "yes", "source": "OurAirports (ourairports.com), public domain"}}, {"type": "Feature", "geometry": {"type": "Point", "coordinates": [124.92625, 1.54859]}, "properties": {"name": "Sam Ratulangi International Airport", "type": "large_airport", "iata_code": "MDC", "icao_code": "WAMM", "municipality": "Manado", "scheduled_service": "yes", "source": "OurAirports (ourairports.com), public domain"}}, {"type": "Feature", "geometry": {"type": "Point", "coordinates": [115.436, -2.21656]}, "properties": {"name": "Warukin Airport", "type": "medium_airport", "iata_code": "TJG", "icao_code": "WAON", "municipality": "Tanta-Tabalong", "scheduled_service": "yes", "source": "OurAirports (ourairports.com), public domain"}}, {"type": "Feature", "geometry": {"type": "Point", "coordinates": [114.76121, -3.44011]}, "properties": {"name": "Syamsudin Noor International Airport", "type": "large_airport", "iata_code": "BDJ", "icao_code": "WAOO", "municipality": "Banjarbaru", "scheduled_service": "yes", "source": "OurAirports (ourairports.com), public domain"}}, {"type": "Feature", "geometry": {"type": "Point", "coordinates": [132.75944, -5.76028]}, "properties": {"name": "Karel Sadsuitubun Airport", "type": "medium_airport", "iata_code": "LUV", "icao_code": "WAPF", "municipality": "Langgur", "scheduled_service": "yes", "source": "OurAirports (ourairports.com), public domain"}}, {"type": "Feature", "geometry": {"type": "Point", "coordinates": [126.97647, -3.14316]}, "properties": {"name": "Namniwel Airport", "type": "medium_airport", "iata_code": "NAM", "icao_code": "WAPN", "municipality": "Namniwel", "scheduled_service": "yes", "source": "OurAirports (ourairports.com), public domain"}}, {"type": "Feature", "geometry": {"type": "Point", "coordinates": [128.089, -3.71026]}, "properties": {"name": "Pattimura International Airport", "type": "large_airport", "iata_code": "AMQ", "icao_code": "WAPP", "municipality": "Ambon", "scheduled_service": "yes", "source": "OurAirports (ourairports.com), public domain"}}, {"type": "Feature", "geometry": {"type": "Point", "coordinates": [117.43071, 2.14776]}, "properties": {"name": "Kalimarau Airport", "type": "medium_airport", "iata_code": "BEJ", "icao_code": "WAQT", "municipality": "Tanjung Redeb - Borneo Island", "scheduled_service": "yes", "source": "OurAirports (ourairports.com), public domain"}}, {"type": "Feature", "geometry": {"type": "Point", "coordinates": [112.71423, -7.9291]}, "properties": {"name": "Abdul Rachman Saleh Airport", "type": "medium_airport", "iata_code": "MLG", "icao_code": "WARA", "municipality": "Malang", "scheduled_service": "yes", "source": "OurAirports (ourairports.com), public domain"}}, {"type": "Feature", "geometry": {"type": "Point", "coordinates": [110.432, -7.78818]}, "properties": {"name": "Adisutjipto International Airport", "type": "medium_airport", "iata_code": "JOG", "icao_code": "WAHH", "municipality": "Yogyakarta", "scheduled_service": "yes", "source": "OurAirports (ourairports.com), public domain"}}, {"type": "Feature", "geometry": {"type": "Point", "coordinates": [110.75749, -7.51604]}, "properties": {"name": "Adisoemarmo International Airport", "type": "large_airport", "iata_code": "SOC", "icao_code": "WAHQ", "municipality": "Surakarta", "scheduled_service": "yes", "source": "OurAirports (ourairports.com), public domain"}}, {"type": "Feature", "geometry": {"type": "Point", "coordinates": [112.787, -7.37983]}, "properties": {"name": "Juanda International Airport", "type": "large_airport", "iata_code": "SUB", "icao_code": "WARR", "municipality": "Surabaya", "scheduled_service": "yes", "source": "OurAirports (ourairports.com), public domain"}}, {"type": "Feature", "geometry": {"type": "Point", "coordinates": [110.37324, -6.97073]}, "properties": {"name": "Jenderal Ahmad Yani Airport", "type": "large_airport", "iata_code": "SRG", "icao_code": "WAHS", "municipality": "Semarang", "scheduled_service": "yes", "source": "OurAirports (ourairports.com), public domain"}}, {"type": "Feature", "geometry": {"type": "Point", "coordinates": [132.26701, -2.92051]}, "properties": {"name": "Fakfak Airport", "type": "medium_airport", "iata_code": "FKQ", "icao_code": "WASF", "municipality": "Fakfak", "scheduled_service": "yes", "source": "OurAirports (ourairports.com), public domain"}}, {"type": "Feature", "geometry": {"type": "Point", "coordinates": [133.69512, -3.6446]}, "properties": {"name": "Utarom Airport", "type": "medium_airport", "iata_code": "KNG", "icao_code": "WASK", "municipality": "Kaimana", "scheduled_service": "yes", "source": "OurAirports (ourairports.com), public domain"}}, {"type": "Feature", "geometry": {"type": "Point", "coordinates": [133.439, -2.53224]}, "properties": {"name": "Babo Airport", "type": "medium_airport", "iata_code": "BXB", "icao_code": "WASO", "municipality": "Babo", "scheduled_service": "no", "source": "OurAirports (ourairports.com), public domain"}}, {"type": "Feature", "geometry": {"type": "Point", "coordinates": [134.049, -0.89183]}, "properties": {"name": "Rendani Airport", "type": "medium_airport", "iata_code": "MKW", "icao_code": "WAUU", "municipality": "Manokwari", "scheduled_service": "yes", "source": "OurAirports (ourairports.com), public domain"}}, {"type": "Feature", "geometry": {"type": "Point", "coordinates": [131.287, -0.894]}, "properties": {"name": "Domine Eduard Osok Airport", "type": "medium_airport", "iata_code": "SOQ", "icao_code": "WASS", "municipality": "Sorong", "scheduled_service": "yes", "source": "OurAirports (ourairports.com), public domain"}}, {"type": "Feature", "geometry": {"type": "Point", "coordinates": [123.671, -10.1716]}, "properties": {"name": "El Tari Airport", "type": "medium_airport", "iata_code": "KOE", "icao_code": "WATT", "municipality": "Kupang", "scheduled_service": "yes", "source": "OurAirports (ourairports.com), public domain"}}, {"type": "Feature", "geometry": {"type": "Point", "coordinates": [138.95242, -4.09732]}, "properties": {"name": "Wamena Airport", "type": "medium_airport", "iata_code": "WMX", "icao_code": "WAVV", "municipality": "Wamena", "scheduled_service": "yes", "source": "OurAirports (ourairports.com), public domain"}}, {"type": "Feature", "geometry": {"type": "Point", "coordinates": [123.63623, -5.29212]}, "properties": {"name": "Matahora Airport", "type": "medium_airport", "iata_code": "WNI", "icao_code": "WAWD", "municipality": "Wangi-wangi Island", "scheduled_service": "yes", "source": "OurAirports (ourairports.com), public domain"}}, {"type": "Feature", "geometry": {"type": "Point", "coordinates": [121.52405, -4.33816]}, "properties": {"name": "Sangia Nibandera Airport", "type": "medium_airport", "iata_code": "KXB", "icao_code": "WAWP", "municipality": "Kolaka", "scheduled_service": "yes", "source": "OurAirports (ourairports.com), public domain"}}, {"type": "Feature", "geometry": {"type": "Point", "coordinates": [101.44432, 0.45865]}, "properties": {"name": "Sultan Syarif Kasim II International Airport / Roesmin Nurjadin AFB", "type": "medium_airport", "iata_code": "PKU", "icao_code": "WIBB", "municipality": "Pekanbaru", "scheduled_service": "yes", "source": "OurAirports (ourairports.com), public domain"}}, {"type": "Feature", "geometry": {"type": "Point", "coordinates": [101.43349, 1.60903]}, "properties": {"name": "Pinang Kampai Airport", "type": "medium_airport", "iata_code": "DUM", "icao_code": "WIBD", "municipality": "Dumai", "scheduled_service": "yes", "source": "OurAirports (ourairports.com), public domain"}}, {"type": "Feature", "geometry": {"type": "Point", "coordinates": [102.335, -0.35281]}, "properties": {"name": "Japura Airport", "type": "medium_airport", "iata_code": "RGT", "icao_code": "WIBJ", "municipality": "Rengat-Sumatra Island", "scheduled_service": "no", "source": "OurAirports (ourairports.com), public domain"}}, {"type": "Feature", "geometry": {"type": "Point", "coordinates": [108.16556, -6.64738]}, "properties": {"name": "Kertajati International Airport", "type": "medium_airport", "iata_code": "KJT", "icao_code": "WICA", "municipality": "Kertajati", "scheduled_service": "yes", "source": "OurAirports (ourairports.com), public domain"}}, {"type": "Feature", "geometry": {"type": "Point", "coordinates": [107.576, -6.90063]}, "properties": {"name": "Husein Sastranegara International Airport", "type": "medium_airport", "iata_code": "BDO", "icao_code": "WICC", "municipality": "Bandung", "scheduled_service": "yes", "source": "OurAirports (ourairports.com), public domain"}}, {"type": "Feature", "geometry": {"type": "Point", "coordinates": [104.119, 1.12103]}, "properties": {"name": "Hang Nadim International Airport", "type": "large_airport", "iata_code": "BTH", "icao_code": "WIDD", "municipality": "Batam", "scheduled_service": "yes", "source": "OurAirports (ourairports.com), public domain"}}, {"type": "Feature", "geometry": {"type": "Point", "coordinates": [104.53341, 0.92397]}, "properties": {"name": "Raja Haji Fisabilillah International Airport", "type": "medium_airport", "iata_code": "TNJ", "icao_code": "WIDN", "municipality": "Tanjung Pinang-Bintan Island", "scheduled_service": "yes", "source": "OurAirports (ourairports.com), public domain"}}, {"type": "Feature", "geometry": {"type": "Point", "coordinates": [106.89032, -6.26699]}, "properties": {"name": "Halim Perdanakusuma International Airport", "type": "large_airport", "iata_code": "HLP", "icao_code": "WIHH", "municipality": "Jakarta", "scheduled_service": "yes", "source": "OurAirports (ourairports.com), public domain"}}, {"type": "Feature", "geometry": {"type": "Point", "coordinates": [106.656, -6.12557]}, "properties": {"name": "Soekarno-Hatta International Airport", "type": "large_airport", "iata_code": "CGK", "icao_code": "WIII", "municipality": "Jakarta", "scheduled_service": "yes", "source": "OurAirports (ourairports.com), public domain"}}, {"type": "Feature", "geometry": {"type": "Point", "coordinates": [105.18253, -5.2468]}, "properties": {"name": "Radin Inten II International Airport", "type": "medium_airport", "iata_code": "TKG", "icao_code": "WILL", "municipality": "Bandar Lampung", "scheduled_service": "yes", "source": "OurAirports (ourairports.com), public domain"}}, {"type": "Feature", "geometry": {"type": "Point", "coordinates": [97.7052, 1.16627]}, "properties": {"name": "Binaka Airport", "type": "medium_airport", "iata_code": "GNS", "icao_code": "WIMB", "municipality": "Gunungsitoli", "scheduled_service": "yes", "source": "OurAirports (ourairports.com), public domain"}}, {"type": "Feature", "geometry": {"type": "Point", "coordinates": [99.4305, 1.4001]}, "properties": {"name": "Aek Godang Airport", "type": "medium_airport", "iata_code": "AEG", "icao_code": "WIME", "municipality": "Padang Sidempuan", "scheduled_service": "no", "source": "OurAirports (ourairports.com), public domain"}}, {"type": "Feature", "geometry": {"type": "Point", "coordinates": [98.67227, 3.55843]}, "properties": {"name": "Soewondo Air Force Base", "type": "medium_airport", "iata_code": "MES", "icao_code": "WIMK", "municipality": "Medan", "scheduled_service": "no", "source": "OurAirports (ourairports.com), public domain"}}, {"type": "Feature", "geometry": {"type": "Point", "coordinates": [98.87057, 3.63785]}, "properties": {"name": "Kualanamu International Airport", "type": "large_airport", "iata_code": "KNO", "icao_code": "WIMM", "municipality": "Beringin", "scheduled_service": "yes", "source": "OurAirports (ourairports.com), public domain"}}, {"type": "Feature", "geometry": {"type": "Point", "coordinates": [98.88715, 1.55713]}, "properties": {"name": "Dr. Ferdinand Lumban Tobing Airport", "type": "medium_airport", "iata_code": "FLZ", "icao_code": "WIMS", "municipality": "Sibolga (Pinangsori)", "scheduled_service": "yes", "source": "OurAirports (ourairports.com), public domain"}}, {"type": "Feature", "geometry": {"type": "Point", "coordinates": [97.86373, 3.39146]}, "properties": {"name": "Alas Leuser Airport", "type": "medium_airport", "iata_code": "LSR", "icao_code": "", "municipality": "Kutacane", "scheduled_service": "yes", "source": "OurAirports (ourairports.com), public domain"}}, {"type": "Feature", "geometry": {"type": "Point", "coordinates": [111.74616, -0.34864]}, "properties": {"name": "Nanga Pinoh Airport", "type": "medium_airport", "iata_code": "NPO", "icao_code": "WIOG", "municipality": "Nanga Pinoh-Borneo Island", "scheduled_service": "yes", "source": "OurAirports (ourairports.com), public domain"}}, {"type": "Feature", "geometry": {"type": "Point", "coordinates": [109.96347, -1.81716]}, "properties": {"name": "Rahadi Osman Airport", "type": "medium_airport", "iata_code": "KTG", "icao_code": "WIOK", "municipality": "Ketapang", "scheduled_service": "yes", "source": "OurAirports (ourairports.com), public domain"}}, {"type": "Feature", "geometry": {"type": "Point", "coordinates": [108.388, 3.90871]}, "properties": {"name": "Ranai Airport", "type": "medium_airport", "iata_code": "NTX", "icao_code": "", "municipality": "Ranai-Natuna Besar Island", "scheduled_service": "yes", "source": "OurAirports (ourairports.com), public domain"}}, {"type": "Feature", "geometry": {"type": "Point", "coordinates": [109.40449, -0.15226]}, "properties": {"name": "Supadio International Airport", "type": "large_airport", "iata_code": "PNK", "icao_code": "WIOO", "municipality": "Pontianak", "scheduled_service": "yes", "source": "OurAirports (ourairports.com), public domain"}}, {"type": "Feature", "geometry": {"type": "Point", "coordinates": [112.94022, 0.83458]}, "properties": {"name": "Pangsuma Airport", "type": "medium_airport", "iata_code": "PSU", "icao_code": "WIOP", "municipality": "Putussibau-Borneo Island", "scheduled_service": "yes", "source": "OurAirports (ourairports.com), public domain"}}, {"type": "Feature", "geometry": {"type": "Point", "coordinates": [111.45805, -0.04521]}, "properties": {"name": "Tebelian Airport", "type": "medium_airport", "iata_code": "SQG", "icao_code": "WIOS", "municipality": "Sintang", "scheduled_service": "yes", "source": "OurAirports (ourairports.com), public domain"}}, {"type": "Feature", "geometry": {"type": "Point", "coordinates": [106.139, -2.1622]}, "properties": {"name": "Depati Amir Airport", "type": "medium_airport", "iata_code": "PGK", "icao_code": "WIKK", "municipality": "Pangkal Pinang", "scheduled_service": "yes", "source": "OurAirports (ourairports.com), public domain"}}, {"type": "Feature", "geometry": {"type": "Point", "coordinates": [102.339, -3.8637]}, "properties": {"name": "Fatmawati Soekarno Airport", "type": "medium_airport", "iata_code": "BKS", "icao_code": "WIGG", "municipality": "Bengkulu", "scheduled_service": "yes", "source": "OurAirports (ourairports.com), public domain"}}, {"type": "Feature", "geometry": {"type": "Point", "coordinates": [104.69815, -2.89765]}, "properties": {"name": "Sultan Mahmud Badaruddin II Airport", "type": "medium_airport", "iata_code": "PLM", "icao_code": "WIPP", "municipality": "Palembang", "scheduled_service": "yes", "source": "OurAirports (ourairports.com), public domain"}}, {"type": "Feature", "geometry": {"type": "Point", "coordinates": [103.88, -3.28607]}, "properties": {"name": "Pendopo Airport", "type": "medium_airport", "iata_code": "PDO", "icao_code": "WIPQ", "municipality": "Talang Gudang-Sumatra Island", "scheduled_service": "yes", "source": "OurAirports (ourairports.com), public domain"}}, {"type": "Feature", "geometry": {"type": "Point", "coordinates": [100.28038, -0.78596]}, "properties": {"name": "Minangkabau International Airport", "type": "large_airport", "iata_code": "PDG", "icao_code": "WIEE", "municipality": "Padang (Katapiang)", "scheduled_service": "yes", "source": "OurAirports (ourairports.com), public domain"}}, {"type": "Feature", "geometry": {"type": "Point", "coordinates": [96.25331, 4.041]}, "properties": {"name": "Cut Nyak Dhien Airport", "type": "medium_airport", "iata_code": "MEQ", "icao_code": "WITC", "municipality": "Kuala Pesisir", "scheduled_service": "yes", "source": "OurAirports (ourairports.com), public domain"}}, {"type": "Feature", "geometry": {"type": "Point", "coordinates": [96.85194, 4.72113]}, "properties": {"name": "Rembele Airport", "type": "medium_airport", "iata_code": "TXE", "icao_code": "WITK", "municipality": "Takengon", "scheduled_service": "yes", "source": "OurAirports (ourairports.com), public domain"}}, {"type": "Feature", "geometry": {"type": "Point", "coordinates": [97.2592, 5.06951]}, "properties": {"name": "Lhok Sukon Airport", "type": "medium_airport", "iata_code": "LSX", "icao_code": "WITL", "municipality": "Lhok Sukon-Sumatra Island", "scheduled_service": "no", "source": "OurAirports (ourairports.com), public domain"}}, {"type": "Feature", "geometry": {"type": "Point", "coordinates": [95.41997, 5.52509]}, "properties": {"name": "Sultan Iskandar Muda International Airport", "type": "large_airport", "iata_code": "BTJ", "icao_code": "WITT", "municipality": "Banda Aceh", "scheduled_service": "yes", "source": "OurAirports (ourairports.com), public domain"}}]}